{
"type": "FeatureCollection",
"name": "thanjavur_buildings",
"crs": { "type": "name", "properties": { "name": "urn:ogc:def:crs:OGC:1.3:CRS84" } },
"features": [
{ "type": "Feature", "properties": { "id": "way/52332574", "@id": "way/52332574", "AND:importance_level": null, "abandoned": null, "abandoned:highway": null, "access": null, "addr:city": null, "addr:housenumber": null, "addr:postcode": null, "addr:street": null, "agricultural": null, "alt_name": null, "area": "yes", "bicycle": null, "bridge": null, "bridge:structure": null, "building": "yes", "changeset": null, "check_date:surface": null, "construction": null, "covered": null, "crossing": null, "crossing:markings": null, "cutting": null, "cycleway": null, "description": null, "direction": null, "dual_carriageway": null, "embankment": null, "emergency": null, "foot": null, "footway": null, "ford": null, "frontage_road": null, "goods": null, "handrail": null, "hgv": null, "highway": "platform", "highway_1": null, "horse": null, "incline": null, "junction": null, "lane_markings": null, "lanes": null, "layer": null, "level": null, "lit": null, "man_made": null, "maxspeed": null, "maxweight:signed": null, "maxweightrating": null, "motor_vehicle": null, "motorcar": null, "motorcycle": null, "motorroad": null, "name": null, "name:en": null, "name:etymology:wikidata": null, "name:ta": null, "name:ur": null, "noname": null, "note": null, "official_name": null, "old_name": null, "old_ref": null, "oneway": null, "opening_date": null, "psv": null, "public_transport": null, "ramp": null, "ref": "3", "ref:old": null, "religion": null, "route": null, "service": null, "sidewalk": null, "smoothness": null, "source": null, "source:bridge": null, "source:lanes": null, "source:surface": null, "source:tunnel": null, "street_cleaning": null, "surface": null, "ta:name": null, "timestamp": null, "tracktype": null, "traffic_calming": null, "tunnel": null, "uid": null, "user": null, "vehicle": null, "version": null, "width": null }, "geometry": { "type": "Polygon", "coordinates": [ [ [ 79.1380779, 10.7870067 ], [ 79.13809, 10.7869802 ], [ 79.1372166, 10.7866942 ], [ 79.1372045, 10.7867286 ], [ 79.1380779, 10.7870067 ] ] ] } },
{ "type": "Feature", "properties": { "id": "way/52332573", "@id": "way/52332573", "AND:importance_level": null, "abandoned": null, "abandoned:highway": null, "access": null, "addr:city": null, "addr:housenumber": null, "addr:postcode": null, "addr:street": null, "agricultural": null, "alt_name": null, "area": null, "bicycle": null, "bridge": null, "bridge:structure": null, "building": "yes", "changeset": null, "check_date:surface": null, "construction": null, "covered": null, "crossing": null, "crossing:markings": null, "cutting": null, "cycleway": null, "description": null, "direction": null, "dual_carriageway": null, "embankment": null, "emergency": null, "foot": null, "footway": null, "ford": null, "frontage_road": null, "goods": null, "handrail": null, "hgv": null, "highway": "platform", "highway_1": null, "horse": null, "incline": null, "junction": null, "lane_markings": null, "lanes": null, "layer": null, "level": null, "lit": null, "man_made": null, "maxspeed": null, "maxweight:signed": null, "maxweightrating": null, "motor_vehicle": null, "motorcar": null, "motorcycle": null, "motorroad": null, "name": null, "name:en": null, "name:etymology:wikidata": null, "name:ta": null, "name:ur": null, "noname": null, "note": null, "official_name": null, "old_name": null, "old_ref": null, "oneway": null, "opening_date": null, "psv": null, "public_transport": "platform", "ramp": null, "ref": "2", "ref:old": null, "religion": null, "route": null, "service": null, "sidewalk": null, "smoothness": null, "source": null, "source:bridge": null, "source:lanes": null, "source:surface": null, "source:tunnel": null, "street_cleaning": null, "surface": null, "ta:name": null, "timestamp": null, "tracktype": null, "traffic_calming": null, "tunnel": null, "uid": null, "user": null, "vehicle": null, "version": null, "width": null }, "geometry": { "type": "Polygon", "coordinates": [ [ [ 79.1381035, 10.7871364 ], [ 79.1381183, 10.7871139 ], [ 79.1371762, 10.7867961 ], [ 79.1371654, 10.7868385 ], [ 79.1381035, 10.7871364 ] ] ] } },
{ "type": "Feature", "properties": { "id": "way/52332572", "@id": "way/52332572", "AND:importance_level": null, "abandoned": null, "abandoned:highway": null, "access": null, "addr:city": null, "addr:housenumber": null, "addr:postcode": null, "addr:street": null, "agricultural": null, "alt_name": null, "area": null, "bicycle": null, "bridge": null, "bridge:structure": null, "building": "yes", "changeset": null, "check_date:surface": null, "construction": null, "covered": null, "crossing": null, "crossing:markings": null, "cutting": null, "cycleway": null, "description": null, "direction": null, "dual_carriageway": null, "embankment": null, "emergency": null, "foot": null, "footway": null, "ford": null, "frontage_road": null, "goods": null, "handrail": null, "hgv": null, "highway": "platform", "highway_1": null, "horse": null, "incline": null, "junction": null, "lane_markings": null, "lanes": null, "layer": null, "level": null, "lit": null, "man_made": null, "maxspeed": null, "maxweight:signed": null, "maxweightrating": null, "motor_vehicle": null, "motorcar": null, "motorcycle": null, "motorroad": null, "name": null, "name:en": null, "name:etymology:wikidata": null, "name:ta": null, "name:ur": null, "noname": null, "note": null, "official_name": null, "old_name": null, "old_ref": null, "oneway": null, "opening_date": null, "psv": null, "public_transport": "platform", "ramp": null, "ref": "1", "ref:old": null, "religion": null, "route": null, "service": null, "sidewalk": null, "smoothness": null, "source": null, "source:bridge": null, "source:lanes": null, "source:surface": null, "source:tunnel": null, "street_cleaning": null, "surface": null, "ta:name": null, "timestamp": null, "tracktype": null, "traffic_calming": null, "tunnel": null, "uid": null, "user": null, "vehicle": null, "version": null, "width": null }, "geometry": { "type": "Polygon", "coordinates": [ [ [ 79.1380146, 10.7872212 ], [ 79.1380294, 10.787192 ], [ 79.1371398, 10.7869074 ], [ 79.1371344, 10.7869365 ], [ 79.1380146, 10.7872212 ] ] ] } }
]
}
