{
"type": "FeatureCollection",
"name": "thanjavur_boundary",
"crs": { "type": "name", "properties": { "name": "urn:ogc:def:crs:OGC:1.3:CRS84" } },
"features": [
{ "type": "Feature", "properties": { "shapeName": "Thanjavur", "shapeISO": "", "shapeID": "76128533B54279577656282", "shapeGroup": "IND", "shapeType": "ADM2" }, "geometry": { "type": "Polygon", "coordinates": [ [ [ 79.00787, 10.89061 ], [ 79.0077, 10.89067 ], [ 79.00366, 10.8922 ], [ 79.00034, 10.89345 ], [ 78.987, 10.89218 ], [ 78.98377, 10.89187 ], [ 78.97405, 10.89094 ], [ 78.96798, 10.8898 ], [ 78.96528, 10.8893 ], [ 78.96074, 10.89329 ], [ 78.95608, 10.89196 ], [ 78.94761, 10.88953 ], [ 78.9444, 10.88861 ], [ 78.93837, 10.88219 ], [ 78.94148, 10.87935 ], [ 78.93544, 10.87281 ], [ 78.93501, 10.87255 ], [ 78.92809, 10.86834 ], [ 78.9203, 10.8656 ], [ 78.91612, 10.86457 ], [ 78.90977, 10.86302 ], [ 78.90967, 10.86299 ], [ 78.90707, 10.86206 ], [ 78.89576, 10.85801 ], [ 78.8948, 10.85776 ], [ 78.8868, 10.85569 ], [ 78.88245, 10.85456 ], [ 78.87962, 10.8534 ], [ 78.8737, 10.85096 ], [ 78.87131, 10.84997 ], [ 78.87047, 10.84962 ], [ 78.87023, 10.84953 ], [ 78.86977, 10.84934 ], [ 78.86193, 10.84678 ], [ 78.85587, 10.84481 ], [ 78.82725, 10.83895 ], [ 78.82545, 10.83858 ], [ 78.82499, 10.83849 ], [ 78.81893, 10.83725 ], [ 78.81759, 10.83723 ], [ 78.81464, 10.83719 ], [ 78.81339, 10.83717 ], [ 78.81261, 10.83716 ], [ 78.81241, 10.83716 ], [ 78.81194, 10.83715 ], [ 78.81052, 10.83713 ], [ 78.80896, 10.8371 ], [ 78.80498, 10.8375 ], [ 78.80006, 10.83801 ], [ 78.7979, 10.83822 ], [ 78.79278, 10.83723 ], [ 78.78995, 10.83668 ], [ 78.78412, 10.83374 ], [ 78.77872, 10.83287 ], [ 78.77876, 10.83268 ], [ 78.77882, 10.83175 ], [ 78.77917, 10.82768 ], [ 78.77917, 10.82686 ], [ 78.77925, 10.82673 ], [ 78.77945, 10.8268 ], [ 78.78225, 10.82734 ], [ 78.78438, 10.82777 ], [ 78.78732, 10.82836 ], [ 78.78773, 10.82844 ], [ 78.79145, 10.82666 ], [ 78.79402, 10.82543 ], [ 78.79431, 10.82529 ], [ 78.79718, 10.82478 ], [ 78.80102, 10.82409 ], [ 78.80173, 10.82433 ], [ 78.80289, 10.82471 ], [ 78.80561, 10.8256 ], [ 78.80723, 10.8254 ], [ 78.81079, 10.82472 ], [ 78.81373, 10.82455 ], [ 78.81591, 10.82426 ], [ 78.81888, 10.82445 ], [ 78.81904, 10.82446 ], [ 78.81914, 10.82447 ], [ 78.82028, 10.82455 ], [ 78.82226, 10.82469 ], [ 78.82252, 10.82471 ], [ 78.82326, 10.82473 ], [ 78.82357, 10.82472 ], [ 78.82383, 10.82474 ], [ 78.8253, 10.82485 ], [ 78.828, 10.82502 ], [ 78.8305, 10.82518 ], [ 78.83109, 10.82522 ], [ 78.83126, 10.82526 ], [ 78.83517, 10.82547 ], [ 78.83615, 10.82554 ], [ 78.83835, 10.82567 ], [ 78.83932, 10.82573 ], [ 78.83954, 10.82575 ], [ 78.84069, 10.82582 ], [ 78.84185, 10.82589 ], [ 78.84285, 10.82596 ], [ 78.84875, 10.82633 ], [ 78.8598, 10.82702 ], [ 78.86071, 10.82707 ], [ 78.86282, 10.82721 ], [ 78.86395, 10.82728 ], [ 78.86451, 10.82731 ], [ 78.86695, 10.82683 ], [ 78.8681, 10.8266 ], [ 78.8682, 10.82617 ], [ 78.86823, 10.82604 ], [ 78.86833, 10.82548 ], [ 78.86835, 10.82537 ], [ 78.86972, 10.81942 ], [ 78.87039, 10.81818 ], [ 78.8716, 10.81596 ], [ 78.87013, 10.81504 ], [ 78.86927, 10.81451 ], [ 78.86602, 10.81247 ], [ 78.86536, 10.81206 ], [ 78.86516, 10.80992 ], [ 78.86452, 10.8029 ], [ 78.86671, 10.80308 ], [ 78.87009, 10.80337 ], [ 78.86995, 10.80266 ], [ 78.86899, 10.79799 ], [ 78.86924, 10.79623 ], [ 78.87044, 10.78779 ], [ 78.87057, 10.78686 ], [ 78.87928, 10.78862 ], [ 78.87975, 10.78607 ], [ 78.87978, 10.78588 ], [ 78.87992, 10.78511 ], [ 78.88093, 10.77955 ], [ 78.88049, 10.77928 ], [ 78.87562, 10.77627 ], [ 78.87559, 10.77478 ], [ 78.8755, 10.76964 ], [ 78.87473, 10.76677 ], [ 78.87423, 10.76489 ], [ 78.87377, 10.76316 ], [ 78.87143, 10.76161 ], [ 78.86863, 10.75976 ], [ 78.86958, 10.75277 ], [ 78.87031, 10.74743 ], [ 78.87009, 10.74198 ], [ 78.86958, 10.73987 ], [ 78.86906, 10.73775 ], [ 78.86879, 10.73756 ], [ 78.8687, 10.7375 ], [ 78.86824, 10.73718 ], [ 78.86755, 10.7367 ], [ 78.86574, 10.73543 ], [ 78.8658, 10.735 ], [ 78.86583, 10.73485 ], [ 78.86879, 10.71511 ], [ 78.8719, 10.70718 ], [ 78.87425, 10.70471 ], [ 78.87676, 10.70209 ], [ 78.87885, 10.69991 ], [ 78.87961, 10.69912 ], [ 78.88366, 10.69487 ], [ 78.88671, 10.69449 ], [ 78.89315, 10.69365 ], [ 78.89415, 10.68803 ], [ 78.89546, 10.6864 ], [ 78.89602, 10.68571 ], [ 78.89686, 10.68469 ], [ 78.89698, 10.68455 ], [ 78.89783, 10.6835 ], [ 78.89796, 10.68341 ], [ 78.89853, 10.68299 ], [ 78.89862, 10.68293 ], [ 78.90099, 10.6812 ], [ 78.90101, 10.68118 ], [ 78.90241, 10.68016 ], [ 78.90612, 10.68042 ], [ 78.90894, 10.6722 ], [ 78.91335, 10.67171 ], [ 78.91533, 10.67149 ], [ 78.9153, 10.67168 ], [ 78.91631, 10.67159 ], [ 78.91806, 10.67143 ], [ 78.91968, 10.67111 ], [ 78.92041, 10.67062 ], [ 78.92075, 10.66997 ], [ 78.92145, 10.66939 ], [ 78.92286, 10.66893 ], [ 78.92448, 10.66866 ], [ 78.92554, 10.6687 ], [ 78.92597, 10.6692 ], [ 78.9263, 10.66966 ], [ 78.92694, 10.66972 ], [ 78.92749, 10.66948 ], [ 78.92788, 10.66893 ], [ 78.9282, 10.66882 ], [ 78.92869, 10.66887 ], [ 78.92902, 10.66937 ], [ 78.92916, 10.67006 ], [ 78.92976, 10.6712 ], [ 78.92959, 10.67159 ], [ 78.92843, 10.6721 ], [ 78.9262, 10.67264 ], [ 78.92437, 10.6732 ], [ 78.92302, 10.67372 ], [ 78.92234, 10.67424 ], [ 78.92282, 10.67451 ], [ 78.92358, 10.67448 ], [ 78.92483, 10.67423 ], [ 78.92574, 10.67428 ], [ 78.92583, 10.67453 ], [ 78.9256, 10.67492 ], [ 78.92491, 10.67521 ], [ 78.92466, 10.67555 ], [ 78.92501, 10.67579 ], [ 78.92574, 10.67587 ], [ 78.92672, 10.67579 ], [ 78.92741, 10.67538 ], [ 78.92693, 10.67483 ], [ 78.92651, 10.67436 ], [ 78.92762, 10.67369 ], [ 78.92928, 10.67332 ], [ 78.93011, 10.67326 ], [ 78.93048, 10.67368 ], [ 78.93137, 10.67424 ], [ 78.93148, 10.67412 ], [ 78.93154, 10.67406 ], [ 78.93278, 10.67341 ], [ 78.93283, 10.67339 ], [ 78.93342, 10.67314 ], [ 78.93362, 10.67305 ], [ 78.93468, 10.67276 ], [ 78.93571, 10.67259 ], [ 78.93654, 10.67247 ], [ 78.93729, 10.67234 ], [ 78.93764, 10.67226 ], [ 78.93773, 10.67242 ], [ 78.93793, 10.67311 ], [ 78.93838, 10.6747 ], [ 78.93879, 10.67615 ], [ 78.93893, 10.67665 ], [ 78.93948, 10.67642 ], [ 78.94253, 10.67521 ], [ 78.94521, 10.67413 ], [ 78.94611, 10.67377 ], [ 78.94626, 10.67372 ], [ 78.94727, 10.67566 ], [ 78.94661, 10.67646 ], [ 78.94599, 10.67723 ], [ 78.94448, 10.67907 ], [ 78.94251, 10.68149 ], [ 78.94139, 10.68528 ], [ 78.93968, 10.68651 ], [ 78.93864, 10.68726 ], [ 78.93765, 10.6871 ], [ 78.93919, 10.68755 ], [ 78.94133, 10.68804 ], [ 78.94247, 10.68867 ], [ 78.94407, 10.68792 ], [ 78.9456, 10.68686 ], [ 78.94781, 10.68536 ], [ 78.94861, 10.68392 ], [ 78.94858, 10.68271 ], [ 78.94939, 10.68147 ], [ 78.94863, 10.68088 ], [ 78.94879, 10.68026 ], [ 78.95123, 10.6786 ], [ 78.95165, 10.67831 ], [ 78.95513, 10.67682 ], [ 78.95514, 10.67804 ], [ 78.95502, 10.67865 ], [ 78.95584, 10.67927 ], [ 78.95628, 10.67965 ], [ 78.95689, 10.67951 ], [ 78.95762, 10.67886 ], [ 78.95855, 10.67818 ], [ 78.96115, 10.67653 ], [ 78.96312, 10.67526 ], [ 78.96507, 10.67385 ], [ 78.96825, 10.67143 ], [ 78.96844, 10.67118 ], [ 78.97018, 10.66882 ], [ 78.97032, 10.66904 ], [ 78.97054, 10.66903 ], [ 78.97082, 10.66891 ], [ 78.97136, 10.66855 ], [ 78.97117, 10.6695 ], [ 78.97226, 10.6719 ], [ 78.97082, 10.67401 ], [ 78.97031, 10.67478 ], [ 78.97, 10.67523 ], [ 78.96988, 10.67541 ], [ 78.96952, 10.67593 ], [ 78.97112, 10.67988 ], [ 78.97387, 10.67993 ], [ 78.97506, 10.67995 ], [ 78.97534, 10.67996 ], [ 78.97738, 10.68 ], [ 78.97948, 10.68198 ], [ 78.98057, 10.68243 ], [ 78.98341, 10.68362 ], [ 78.9842, 10.68395 ], [ 78.98366, 10.68784 ], [ 78.98255, 10.6918 ], [ 78.98519, 10.69535 ], [ 78.9863, 10.69684 ], [ 78.98774, 10.69876 ], [ 78.98827, 10.69947 ], [ 78.98894, 10.70036 ], [ 78.98938, 10.70273 ], [ 78.98852, 10.70683 ], [ 78.98758, 10.71023 ], [ 78.98811, 10.71578 ], [ 78.99069, 10.7196 ], [ 78.99196, 10.72013 ], [ 78.99365, 10.72084 ], [ 78.99643, 10.722 ], [ 78.99693, 10.72221 ], [ 78.99866, 10.72293 ], [ 79.00039, 10.72365 ], [ 79.00046, 10.72358 ], [ 79.00126, 10.72275 ], [ 79.00193, 10.72205 ], [ 79.00519, 10.71863 ], [ 79.00602, 10.71777 ], [ 79.00727, 10.71438 ], [ 79.00734, 10.71419 ], [ 79.01052, 10.71409 ], [ 79.01245, 10.71403 ], [ 79.01254, 10.71247 ], [ 79.00843, 10.71021 ], [ 79.00547, 10.70765 ], [ 79.00869, 10.70433 ], [ 79.01074, 10.70321 ], [ 79.01045, 10.70165 ], [ 79.01003, 10.69946 ], [ 79.01475, 10.69939 ], [ 79.01902, 10.69932 ], [ 79.0308, 10.69782 ], [ 79.03329, 10.6975 ], [ 79.03342, 10.69749 ], [ 79.03352, 10.69717 ], [ 79.03357, 10.69707 ], [ 79.03425, 10.6948 ], [ 79.02469, 10.69218 ], [ 79.02276, 10.69088 ], [ 79.0225, 10.69101 ], [ 79.02097, 10.69173 ], [ 79.02059, 10.69192 ], [ 79.01861, 10.69145 ], [ 79.01922, 10.68935 ], [ 79.01628, 10.68628 ], [ 79.01732, 10.68206 ], [ 79.01738, 10.68181 ], [ 79.01873, 10.68184 ], [ 79.02021, 10.68187 ], [ 79.02017, 10.67855 ], [ 79.01914, 10.67786 ], [ 79.01863, 10.67751 ], [ 79.01844, 10.67738 ], [ 79.01849, 10.67664 ], [ 79.01857, 10.67573 ], [ 79.0192, 10.67578 ], [ 79.02882, 10.67663 ], [ 79.04244, 10.67782 ], [ 79.04477, 10.6774 ], [ 79.04711, 10.67698 ], [ 79.04839, 10.67675 ], [ 79.0506, 10.67635 ], [ 79.05072, 10.67631 ], [ 79.05379, 10.67517 ], [ 79.0557, 10.67446 ], [ 79.0559, 10.67438 ], [ 79.05579, 10.67409 ], [ 79.05447, 10.67051 ], [ 79.05905, 10.67076 ], [ 79.06012, 10.67049 ], [ 79.06425, 10.66952 ], [ 79.06545, 10.67034 ], [ 79.06553, 10.6704 ], [ 79.06665, 10.67116 ], [ 79.06955, 10.67107 ], [ 79.0694, 10.66846 ], [ 79.06859, 10.66297 ], [ 79.06848, 10.66263 ], [ 79.06841, 10.6624 ], [ 79.06831, 10.66214 ], [ 79.06817, 10.66158 ], [ 79.06625, 10.65527 ], [ 79.07013, 10.65552 ], [ 79.06976, 10.65466 ], [ 79.06799, 10.65056 ], [ 79.06808, 10.64953 ], [ 79.06862, 10.6434 ], [ 79.06883, 10.64293 ], [ 79.06937, 10.64174 ], [ 79.0695, 10.64146 ], [ 79.07134, 10.63742 ], [ 79.07311, 10.63657 ], [ 79.07496, 10.63568 ], [ 79.07815, 10.63416 ], [ 79.08178, 10.63338 ], [ 79.08236, 10.63326 ], [ 79.0827, 10.63154 ], [ 79.08664, 10.63185 ], [ 79.08948, 10.63093 ], [ 79.09322, 10.62973 ], [ 79.09497, 10.62612 ], [ 79.09509, 10.62587 ], [ 79.09707, 10.62567 ], [ 79.09717, 10.62566 ], [ 79.09795, 10.62558 ], [ 79.09932, 10.62545 ], [ 79.10197, 10.62518 ], [ 79.10173, 10.62306 ], [ 79.10468, 10.62309 ], [ 79.10526, 10.61874 ], [ 79.10527, 10.61867 ], [ 79.10587, 10.61728 ], [ 79.10639, 10.61706 ], [ 79.10702, 10.61679 ], [ 79.10929, 10.61926 ], [ 79.10988, 10.6199 ], [ 79.11325, 10.62356 ], [ 79.11382, 10.62418 ], [ 79.11736, 10.62803 ], [ 79.11798, 10.6287 ], [ 79.12059, 10.63154 ], [ 79.12277, 10.63167 ], [ 79.12426, 10.63176 ], [ 79.1265, 10.63189 ], [ 79.1272, 10.63193 ], [ 79.12838, 10.63458 ], [ 79.13156, 10.62941 ], [ 79.13262, 10.6277 ], [ 79.13274, 10.6275 ], [ 79.13304, 10.62702 ], [ 79.13595, 10.62229 ], [ 79.13851, 10.61813 ], [ 79.1386, 10.61786 ], [ 79.13894, 10.61681 ], [ 79.13919, 10.61605 ], [ 79.13928, 10.61577 ], [ 79.13969, 10.61452 ], [ 79.14161, 10.61476 ], [ 79.14218, 10.61484 ], [ 79.14291, 10.61278 ], [ 79.14272, 10.61261 ], [ 79.1425, 10.61242 ], [ 79.14086, 10.61102 ], [ 79.14144, 10.61009 ], [ 79.14314, 10.60739 ], [ 79.14548, 10.60527 ], [ 79.14613, 10.60468 ], [ 79.14606, 10.60353 ], [ 79.14605, 10.60333 ], [ 79.14602, 10.60278 ], [ 79.146, 10.60245 ], [ 79.14419, 10.601 ], [ 79.14335, 10.60034 ], [ 79.14022, 10.5978 ], [ 79.14055, 10.59751 ], [ 79.14144, 10.5967 ], [ 79.14185, 10.59633 ], [ 79.14365, 10.5947 ], [ 79.14374, 10.58755 ], [ 79.14457, 10.58746 ], [ 79.14725, 10.58719 ], [ 79.15533, 10.58715 ], [ 79.15783, 10.58828 ], [ 79.15893, 10.5883 ], [ 79.16495, 10.58844 ], [ 79.16529, 10.58837 ], [ 79.16939, 10.58747 ], [ 79.1701, 10.58731 ], [ 79.16997, 10.58686 ], [ 79.16949, 10.58525 ], [ 79.16943, 10.58503 ], [ 79.1711, 10.58415 ], [ 79.17277, 10.58327 ], [ 79.17364, 10.58281 ], [ 79.1738, 10.58293 ], [ 79.17594, 10.58454 ], [ 79.17876, 10.58665 ], [ 79.17937, 10.58711 ], [ 79.17939, 10.58695 ], [ 79.17947, 10.5863 ], [ 79.18002, 10.58215 ], [ 79.18009, 10.58162 ], [ 79.18038, 10.57938 ], [ 79.1799, 10.57206 ], [ 79.17996, 10.57205 ], [ 79.18198, 10.57173 ], [ 79.18371, 10.57145 ], [ 79.18375, 10.57214 ], [ 79.18439, 10.57601 ], [ 79.18464, 10.57609 ], [ 79.18695, 10.57686 ], [ 79.18883, 10.5785 ], [ 79.19185, 10.57899 ], [ 79.19253, 10.57342 ], [ 79.19265, 10.5724 ], [ 79.19277, 10.5714 ], [ 79.19296, 10.56983 ], [ 79.19228, 10.56926 ], [ 79.18951, 10.56694 ], [ 79.19209, 10.56279 ], [ 79.19259, 10.56199 ], [ 79.19244, 10.56086 ], [ 79.19222, 10.55958 ], [ 79.19211, 10.55958 ], [ 79.19099, 10.5595 ], [ 79.19018, 10.55944 ], [ 79.19027, 10.55805 ], [ 79.19043, 10.55555 ], [ 79.18943, 10.55571 ], [ 79.18903, 10.55577 ], [ 79.18465, 10.55646 ], [ 79.1847, 10.55586 ], [ 79.18472, 10.55557 ], [ 79.18501, 10.55152 ], [ 79.1852, 10.5489 ], [ 79.18554, 10.54773 ], [ 79.18563, 10.54745 ], [ 79.18568, 10.54727 ], [ 79.18636, 10.54498 ], [ 79.1866, 10.54416 ], [ 79.18665, 10.54352 ], [ 79.18673, 10.5433 ], [ 79.18744, 10.54133 ], [ 79.18721, 10.54086 ], [ 79.18585, 10.53809 ], [ 79.18513, 10.53848 ], [ 79.185, 10.53855 ], [ 79.18479, 10.5386 ], [ 79.18344, 10.53925 ], [ 79.18198, 10.53995 ], [ 79.18114, 10.53891 ], [ 79.18039, 10.53797 ], [ 79.1797, 10.53711 ], [ 79.17723, 10.53547 ], [ 79.17585, 10.53455 ], [ 79.17555, 10.53435 ], [ 79.17375, 10.53443 ], [ 79.17098, 10.53456 ], [ 79.17078, 10.53182 ], [ 79.17012, 10.53187 ], [ 79.16996, 10.53188 ], [ 79.16054, 10.5326 ], [ 79.15695, 10.53082 ], [ 79.15657, 10.53063 ], [ 79.15269, 10.52953 ], [ 79.15253, 10.52786 ], [ 79.15188, 10.52646 ], [ 79.15136, 10.5245 ], [ 79.15581, 10.5236 ], [ 79.15342, 10.52037 ], [ 79.153, 10.51987 ], [ 79.15288, 10.51972 ], [ 79.15281, 10.51957 ], [ 79.15227, 10.51904 ], [ 79.15175, 10.51854 ], [ 79.14808, 10.51584 ], [ 79.14787, 10.5156 ], [ 79.1476, 10.51568 ], [ 79.14739, 10.51571 ], [ 79.14722, 10.51575 ], [ 79.14552, 10.51471 ], [ 79.14465, 10.51443 ], [ 79.14361, 10.51379 ], [ 79.1433, 10.5136 ], [ 79.14207, 10.51068 ], [ 79.14211, 10.51029 ], [ 79.14215, 10.50988 ], [ 79.14264, 10.50519 ], [ 79.14171, 10.50209 ], [ 79.1416, 10.50171 ], [ 79.14084, 10.4992 ], [ 79.13615, 10.49741 ], [ 79.13543, 10.49713 ], [ 79.13511, 10.49701 ], [ 79.13473, 10.49687 ], [ 79.13386, 10.49653 ], [ 79.13217, 10.49589 ], [ 79.13073, 10.49534 ], [ 79.13083, 10.49513 ], [ 79.13099, 10.49484 ], [ 79.13104, 10.49473 ], [ 79.13212, 10.49266 ], [ 79.13239, 10.49213 ], [ 79.13259, 10.49175 ], [ 79.13275, 10.49145 ], [ 79.13372, 10.491 ], [ 79.13399, 10.49046 ], [ 79.13427, 10.48994 ], [ 79.13464, 10.48922 ], [ 79.13485, 10.48911 ], [ 79.13518, 10.48833 ], [ 79.13527, 10.48829 ], [ 79.137, 10.4874 ], [ 79.13761, 10.48709 ], [ 79.13868, 10.48653 ], [ 79.14017, 10.48576 ], [ 79.14321, 10.48586 ], [ 79.14674, 10.48599 ], [ 79.1472, 10.48601 ], [ 79.14756, 10.48606 ], [ 79.14779, 10.48607 ], [ 79.14795, 10.48607 ], [ 79.14804, 10.48587 ], [ 79.15158, 10.4797 ], [ 79.15402, 10.47545 ], [ 79.15654, 10.47623 ], [ 79.1578, 10.47662 ], [ 79.15974, 10.47466 ], [ 79.16146, 10.47293 ], [ 79.16314, 10.47506 ], [ 79.16334, 10.47531 ], [ 79.1644, 10.47565 ], [ 79.16455, 10.4757 ], [ 79.16627, 10.47626 ], [ 79.16683, 10.47644 ], [ 79.16837, 10.47694 ], [ 79.16922, 10.47722 ], [ 79.17096, 10.48134 ], [ 79.17112, 10.48171 ], [ 79.17418, 10.48214 ], [ 79.17414, 10.48199 ], [ 79.17358, 10.47987 ], [ 79.17309, 10.47803 ], [ 79.17586, 10.47762 ], [ 79.17656, 10.47752 ], [ 79.1768, 10.47748 ], [ 79.17804, 10.47699 ], [ 79.18018, 10.47614 ], [ 79.18088, 10.47587 ], [ 79.18199, 10.47543 ], [ 79.18101, 10.47397 ], [ 79.18281, 10.47285 ], [ 79.18479, 10.47163 ], [ 79.18964, 10.47137 ], [ 79.18976, 10.47136 ], [ 79.19059, 10.4705 ], [ 79.19228, 10.46876 ], [ 79.1946, 10.4688 ], [ 79.19498, 10.46704 ], [ 79.19509, 10.46655 ], [ 79.19521, 10.46597 ], [ 79.19581, 10.46318 ], [ 79.19475, 10.46284 ], [ 79.19414, 10.46265 ], [ 79.19232, 10.46207 ], [ 79.19253, 10.45989 ], [ 79.1873, 10.46003 ], [ 79.18439, 10.46011 ], [ 79.18238, 10.46017 ], [ 79.1798, 10.46023 ], [ 79.17943, 10.45772 ], [ 79.17549, 10.45899 ], [ 79.17521, 10.45908 ], [ 79.17367, 10.4559 ], [ 79.17067, 10.45585 ], [ 79.16922, 10.45616 ], [ 79.16881, 10.45463 ], [ 79.16849, 10.45347 ], [ 79.17108, 10.45246 ], [ 79.17188, 10.45215 ], [ 79.17238, 10.45195 ], [ 79.1763, 10.45041 ], [ 79.17644, 10.45022 ], [ 79.1767, 10.44798 ], [ 79.17671, 10.44783 ], [ 79.17673, 10.44767 ], [ 79.17675, 10.44748 ], [ 79.17676, 10.44734 ], [ 79.17561, 10.44759 ], [ 79.17312, 10.44814 ], [ 79.17142, 10.44852 ], [ 79.16845, 10.44918 ], [ 79.16768, 10.44902 ], [ 79.16275, 10.44797 ], [ 79.16152, 10.44789 ], [ 79.15987, 10.44779 ], [ 79.15904, 10.44978 ], [ 79.15875, 10.45058 ], [ 79.15818, 10.45213 ], [ 79.15668, 10.45329 ], [ 79.157, 10.45389 ], [ 79.1581, 10.45597 ], [ 79.15853, 10.46131 ], [ 79.15863, 10.4626 ], [ 79.15343, 10.46368 ], [ 79.1529, 10.463 ], [ 79.15044, 10.45987 ], [ 79.15149, 10.45909 ], [ 79.15366, 10.4575 ], [ 79.15282, 10.45569 ], [ 79.15253, 10.45505 ], [ 79.15334, 10.4537 ], [ 79.15533, 10.45039 ], [ 79.15554, 10.45004 ], [ 79.15495, 10.44957 ], [ 79.15444, 10.44916 ], [ 79.15354, 10.44844 ], [ 79.15221, 10.44738 ], [ 79.15194, 10.44751 ], [ 79.1513, 10.44779 ], [ 79.15023, 10.44826 ], [ 79.14978, 10.44846 ], [ 79.14774, 10.44935 ], [ 79.14692, 10.44972 ], [ 79.14594, 10.44969 ], [ 79.14422, 10.44959 ], [ 79.14198, 10.44946 ], [ 79.14162, 10.44944 ], [ 79.14136, 10.44943 ], [ 79.14136, 10.44919 ], [ 79.14137, 10.44814 ], [ 79.14138, 10.44645 ], [ 79.1442, 10.44471 ], [ 79.14289, 10.44331 ], [ 79.14228, 10.44266 ], [ 79.14126, 10.44157 ], [ 79.13981, 10.44003 ], [ 79.13953, 10.43973 ], [ 79.13876, 10.4389 ], [ 79.13846, 10.43858 ], [ 79.13785, 10.43829 ], [ 79.13334, 10.43611 ], [ 79.13215, 10.43629 ], [ 79.13202, 10.43631 ], [ 79.13182, 10.43634 ], [ 79.13091, 10.43647 ], [ 79.13054, 10.43581 ], [ 79.1295, 10.43397 ], [ 79.13137, 10.42971 ], [ 79.13249, 10.42714 ], [ 79.13731, 10.42303 ], [ 79.13794, 10.42203 ], [ 79.13934, 10.41982 ], [ 79.13979, 10.41917 ], [ 79.14067, 10.4178 ], [ 79.14101, 10.41749 ], [ 79.14623, 10.41277 ], [ 79.14719, 10.4115 ], [ 79.14956, 10.40836 ], [ 79.15064, 10.40694 ], [ 79.15098, 10.4065 ], [ 79.15497, 10.40073 ], [ 79.15536, 10.40016 ], [ 79.15467, 10.39787 ], [ 79.15406, 10.39689 ], [ 79.15337, 10.39602 ], [ 79.15276, 10.3948 ], [ 79.1526, 10.39415 ], [ 79.15132, 10.39282 ], [ 79.15117, 10.39267 ], [ 79.15039, 10.39185 ], [ 79.14953, 10.39096 ], [ 79.14869, 10.39009 ], [ 79.14854, 10.38993 ], [ 79.1478, 10.38802 ], [ 79.1473, 10.38672 ], [ 79.14685, 10.38555 ], [ 79.14644, 10.38451 ], [ 79.14622, 10.38394 ], [ 79.14658, 10.37954 ], [ 79.14943, 10.37608 ], [ 79.14911, 10.37573 ], [ 79.14902, 10.37563 ], [ 79.14827, 10.3748 ], [ 79.14796, 10.37445 ], [ 79.14616, 10.37245 ], [ 79.14879, 10.37002 ], [ 79.14489, 10.36731 ], [ 79.14549, 10.36462 ], [ 79.14765, 10.36347 ], [ 79.14911, 10.36269 ], [ 79.14975, 10.36153 ], [ 79.15015, 10.36079 ], [ 79.15023, 10.36065 ], [ 79.1503, 10.36052 ], [ 79.15221, 10.35705 ], [ 79.1523, 10.35683 ], [ 79.14887, 10.35486 ], [ 79.14898, 10.35443 ], [ 79.15014, 10.35004 ], [ 79.15013, 10.34398 ], [ 79.14654, 10.34479 ], [ 79.14637, 10.34483 ], [ 79.14607, 10.34491 ], [ 79.14465, 10.34523 ], [ 79.14208, 10.34215 ], [ 79.14166, 10.34165 ], [ 79.14186, 10.34139 ], [ 79.14269, 10.34027 ], [ 79.13988, 10.33841 ], [ 79.13822, 10.33731 ], [ 79.13476, 10.33502 ], [ 79.13149, 10.33797 ], [ 79.12821, 10.33724 ], [ 79.12664, 10.33689 ], [ 79.12608, 10.33676 ], [ 79.12557, 10.33665 ], [ 79.12511, 10.33638 ], [ 79.12415, 10.33581 ], [ 79.12288, 10.33506 ], [ 79.12214, 10.33462 ], [ 79.12225, 10.33429 ], [ 79.12278, 10.33265 ], [ 79.12287, 10.33238 ], [ 79.12247, 10.33221 ], [ 79.11967, 10.33098 ], [ 79.11988, 10.32893 ], [ 79.11993, 10.32848 ], [ 79.12003, 10.32758 ], [ 79.12025, 10.32543 ], [ 79.12372, 10.32534 ], [ 79.12454, 10.32745 ], [ 79.12485, 10.32825 ], [ 79.12716, 10.32816 ], [ 79.12856, 10.3281 ], [ 79.13161, 10.33019 ], [ 79.13194, 10.33042 ], [ 79.13392, 10.32772 ], [ 79.13564, 10.32535 ], [ 79.13162, 10.32207 ], [ 79.13157, 10.32196 ], [ 79.13109, 10.32098 ], [ 79.12924, 10.31717 ], [ 79.1291, 10.31682 ], [ 79.1276, 10.31297 ], [ 79.12734, 10.31232 ], [ 79.12755, 10.31118 ], [ 79.12794, 10.30912 ], [ 79.1243, 10.30857 ], [ 79.12314, 10.30839 ], [ 79.12304, 10.30838 ], [ 79.12256, 10.30831 ], [ 79.1209, 10.3041 ], [ 79.12054, 10.30318 ], [ 79.12024, 10.30243 ], [ 79.12278, 10.30177 ], [ 79.1225, 10.30018 ], [ 79.12209, 10.2978 ], [ 79.12195, 10.29695 ], [ 79.12189, 10.2966 ], [ 79.1216, 10.29493 ], [ 79.12282, 10.29427 ], [ 79.12346, 10.29393 ], [ 79.12342, 10.29383 ], [ 79.12216, 10.2876 ], [ 79.12323, 10.28695 ], [ 79.12591, 10.2853 ], [ 79.12713, 10.28454 ], [ 79.12721, 10.28449 ], [ 79.12762, 10.28424 ], [ 79.12763, 10.28413 ], [ 79.12772, 10.28224 ], [ 79.12774, 10.2819 ], [ 79.12776, 10.28152 ], [ 79.12776, 10.28138 ], [ 79.12777, 10.28128 ], [ 79.12782, 10.28023 ], [ 79.12848, 10.27939 ], [ 79.12888, 10.27872 ], [ 79.12988, 10.27759 ], [ 79.13028, 10.27708 ], [ 79.13073, 10.2765 ], [ 79.13087, 10.27632 ], [ 79.13119, 10.27591 ], [ 79.1314, 10.27563 ], [ 79.13267, 10.27401 ], [ 79.13242, 10.27273 ], [ 79.13144, 10.26767 ], [ 79.13187, 10.2673 ], [ 79.13232, 10.26691 ], [ 79.13379, 10.26565 ], [ 79.13313, 10.26477 ], [ 79.13308, 10.26469 ], [ 79.13182, 10.26301 ], [ 79.13165, 10.26278 ], [ 79.13097, 10.26188 ], [ 79.13051, 10.26127 ], [ 79.1305, 10.2606 ], [ 79.13049, 10.2602 ], [ 79.13034, 10.25584 ], [ 79.12963, 10.25498 ], [ 79.12846, 10.25357 ], [ 79.12626, 10.25339 ], [ 79.12366, 10.25317 ], [ 79.1236, 10.25317 ], [ 79.12179, 10.25302 ], [ 79.1214, 10.25299 ], [ 79.12024, 10.2529 ], [ 79.11892, 10.25279 ], [ 79.11854, 10.25276 ], [ 79.11725, 10.25266 ], [ 79.117, 10.25264 ], [ 79.11718, 10.24873 ], [ 79.11736, 10.24462 ], [ 79.11736, 10.24452 ], [ 79.11757, 10.23999 ], [ 79.1176, 10.23927 ], [ 79.11763, 10.23871 ], [ 79.11765, 10.2381 ], [ 79.11891, 10.23744 ], [ 79.11992, 10.23692 ], [ 79.12099, 10.23636 ], [ 79.12128, 10.23621 ], [ 79.12151, 10.23613 ], [ 79.12178, 10.23599 ], [ 79.12208, 10.23583 ], [ 79.12851, 10.23511 ], [ 79.12962, 10.23516 ], [ 79.13014, 10.23519 ], [ 79.13031, 10.2352 ], [ 79.1329, 10.23545 ], [ 79.13416, 10.23695 ], [ 79.13427, 10.23708 ], [ 79.135, 10.23795 ], [ 79.13577, 10.23806 ], [ 79.13649, 10.23817 ], [ 79.13666, 10.23819 ], [ 79.13943, 10.2386 ], [ 79.13946, 10.23883 ], [ 79.14026, 10.23872 ], [ 79.14086, 10.23881 ], [ 79.14214, 10.23855 ], [ 79.14379, 10.23822 ], [ 79.14461, 10.23805 ], [ 79.14617, 10.23773 ], [ 79.14614, 10.23706 ], [ 79.14605, 10.23529 ], [ 79.14588, 10.23202 ], [ 79.14829, 10.23115 ], [ 79.14851, 10.23107 ], [ 79.14899, 10.2309 ], [ 79.14886, 10.23057 ], [ 79.1486, 10.22991 ], [ 79.1484, 10.22942 ], [ 79.14837, 10.22934 ], [ 79.14736, 10.22682 ], [ 79.14596, 10.22335 ], [ 79.14587, 10.22312 ], [ 79.14584, 10.22302 ], [ 79.14557, 10.22235 ], [ 79.14545, 10.22205 ], [ 79.14539, 10.2219 ], [ 79.14508, 10.22113 ], [ 79.14477, 10.22036 ], [ 79.14789, 10.2189 ], [ 79.14863, 10.21855 ], [ 79.1511, 10.2204 ], [ 79.15294, 10.22177 ], [ 79.15493, 10.22114 ], [ 79.15704, 10.22048 ], [ 79.15787, 10.22086 ], [ 79.1596, 10.22166 ], [ 79.16538, 10.22137 ], [ 79.16586, 10.22114 ], [ 79.16859, 10.21987 ], [ 79.16918, 10.21959 ], [ 79.16928, 10.21955 ], [ 79.16989, 10.21926 ], [ 79.17075, 10.21886 ], [ 79.17235, 10.21811 ], [ 79.17313, 10.21877 ], [ 79.17345, 10.21904 ], [ 79.17573, 10.22099 ], [ 79.1786, 10.22014 ], [ 79.17871, 10.22011 ], [ 79.18131, 10.21934 ], [ 79.1819, 10.21916 ], [ 79.18203, 10.21752 ], [ 79.18214, 10.21606 ], [ 79.1823, 10.21389 ], [ 79.18233, 10.21354 ], [ 79.18238, 10.21294 ], [ 79.18251, 10.21115 ], [ 79.18644, 10.2102 ], [ 79.18658, 10.21 ], [ 79.18723, 10.20902 ], [ 79.18808, 10.20769 ], [ 79.18824, 10.20745 ], [ 79.18877, 10.20663 ], [ 79.18652, 10.20566 ], [ 79.18552, 10.20523 ], [ 79.18548, 10.20431 ], [ 79.18543, 10.20303 ], [ 79.18542, 10.20254 ], [ 79.18541, 10.20223 ], [ 79.18541, 10.2022 ], [ 79.18535, 10.20088 ], [ 79.18384, 10.20214 ], [ 79.18314, 10.20277 ], [ 79.1826, 10.20325 ], [ 79.18218, 10.2032 ], [ 79.18018, 10.20296 ], [ 79.17779, 10.20267 ], [ 79.177, 10.19856 ], [ 79.17576, 10.20051 ], [ 79.17517, 10.20144 ], [ 79.17457, 10.20155 ], [ 79.17419, 10.20162 ], [ 79.17089, 10.20226 ], [ 79.1705, 10.20234 ], [ 79.17034, 10.20506 ], [ 79.1703, 10.20565 ], [ 79.16716, 10.20595 ], [ 79.16435, 10.20622 ], [ 79.16421, 10.20354 ], [ 79.16255, 10.20331 ], [ 79.16157, 10.20317 ], [ 79.15981, 10.20292 ], [ 79.15957, 10.20289 ], [ 79.15682, 10.20006 ], [ 79.15549, 10.19941 ], [ 79.15371, 10.19855 ], [ 79.15333, 10.19837 ], [ 79.1535, 10.19522 ], [ 79.1535, 10.19515 ], [ 79.15374, 10.19068 ], [ 79.15386, 10.18836 ], [ 79.15723, 10.18737 ], [ 79.15749, 10.18729 ], [ 79.15804, 10.18542 ], [ 79.15828, 10.1846 ], [ 79.15882, 10.18389 ], [ 79.1598, 10.18261 ], [ 79.16005, 10.18229 ], [ 79.15818, 10.17648 ], [ 79.15979, 10.17435 ], [ 79.1571, 10.1726 ], [ 79.15557, 10.17177 ], [ 79.15554, 10.17175 ], [ 79.15284, 10.16817 ], [ 79.1539, 10.16311 ], [ 79.16061, 10.15987 ], [ 79.16126, 10.15998 ], [ 79.16143, 10.16001 ], [ 79.1634, 10.16037 ], [ 79.16411, 10.1605 ], [ 79.16514, 10.16068 ], [ 79.16535, 10.16116 ], [ 79.16545, 10.1614 ], [ 79.16656, 10.16387 ], [ 79.16914, 10.1636 ], [ 79.17027, 10.16349 ], [ 79.17042, 10.16347 ], [ 79.17056, 10.16346 ], [ 79.17877, 10.1626 ], [ 79.18337, 10.16212 ], [ 79.18533, 10.16259 ], [ 79.19221, 10.16426 ], [ 79.19243, 10.16431 ], [ 79.1934, 10.16454 ], [ 79.19464, 10.16448 ], [ 79.19527, 10.16373 ], [ 79.19638, 10.16131 ], [ 79.19873, 10.16184 ], [ 79.20032, 10.16219 ], [ 79.20442, 10.16136 ], [ 79.20463, 10.15864 ], [ 79.20477, 10.15672 ], [ 79.20667, 10.15437 ], [ 79.20706, 10.15389 ], [ 79.20693, 10.15255 ], [ 79.20685, 10.15175 ], [ 79.20667, 10.14999 ], [ 79.2066, 10.14926 ], [ 79.20932, 10.14717 ], [ 79.20965, 10.14692 ], [ 79.21028, 10.14643 ], [ 79.2106, 10.14465 ], [ 79.20933, 10.14438 ], [ 79.20849, 10.1442 ], [ 79.20649, 10.14378 ], [ 79.20605, 10.1408 ], [ 79.2073, 10.14074 ], [ 79.21143, 10.14051 ], [ 79.21459, 10.14034 ], [ 79.21536, 10.1403 ], [ 79.21877, 10.14012 ], [ 79.22118, 10.14045 ], [ 79.222, 10.14056 ], [ 79.22301, 10.1407 ], [ 79.22343, 10.14076 ], [ 79.22454, 10.14091 ], [ 79.22503, 10.14098 ], [ 79.22528, 10.14101 ], [ 79.22616, 10.14113 ], [ 79.22739, 10.1413 ], [ 79.22829, 10.14142 ], [ 79.22929, 10.14156 ], [ 79.22971, 10.14153 ], [ 79.22956, 10.14253 ], [ 79.22931, 10.14392 ], [ 79.22927, 10.1445 ], [ 79.22927, 10.14541 ], [ 79.2304, 10.14708 ], [ 79.23054, 10.14798 ], [ 79.23061, 10.14893 ], [ 79.23099, 10.14961 ], [ 79.23141, 10.15005 ], [ 79.23493, 10.15099 ], [ 79.23718, 10.15194 ], [ 79.23825, 10.15231 ], [ 79.23903, 10.15263 ], [ 79.23985, 10.1528 ], [ 79.24042, 10.15323 ], [ 79.24075, 10.15386 ], [ 79.24074, 10.15481 ], [ 79.24065, 10.15586 ], [ 79.24059, 10.15709 ], [ 79.24131, 10.16347 ], [ 79.24125, 10.16401 ], [ 79.24106, 10.16434 ], [ 79.24001, 10.16539 ], [ 79.2391, 10.16673 ], [ 79.23848, 10.16786 ], [ 79.23808, 10.16909 ], [ 79.23837, 10.17007 ], [ 79.23925, 10.1709 ], [ 79.24055, 10.17174 ], [ 79.24183, 10.1733 ], [ 79.24197, 10.17388 ], [ 79.24183, 10.17508 ], [ 79.24103, 10.17769 ], [ 79.24099, 10.17928 ], [ 79.24121, 10.18008 ], [ 79.24204, 10.18146 ], [ 79.24254, 10.18203 ], [ 79.24338, 10.18316 ], [ 79.24541, 10.18461 ], [ 79.25118, 10.18693 ], [ 79.25408, 10.18795 ], [ 79.25564, 10.18925 ], [ 79.26267, 10.19534 ], [ 79.2651, 10.19788 ], [ 79.26822, 10.2027 ], [ 79.27003, 10.20466 ], [ 79.2721, 10.20629 ], [ 79.27478, 10.20753 ], [ 79.27649, 10.20865 ], [ 79.27931, 10.21097 ], [ 79.28055, 10.21278 ], [ 79.28135, 10.21453 ], [ 79.28135, 10.2167 ], [ 79.28047, 10.21931 ], [ 79.27899, 10.22073 ], [ 79.2763, 10.22221 ], [ 79.2729, 10.22366 ], [ 79.27076, 10.22529 ], [ 79.2684, 10.22783 ], [ 79.26764, 10.23001 ], [ 79.26778, 10.23127 ], [ 79.26825, 10.2324 ], [ 79.27253, 10.23857 ], [ 79.27512, 10.24115 ], [ 79.27714, 10.24306 ], [ 79.28222, 10.24814 ], [ 79.28666, 10.25202 ], [ 79.28818, 10.25348 ], [ 79.28981, 10.255 ], [ 79.29231, 10.25754 ], [ 79.29507, 10.26037 ], [ 79.29844, 10.26292 ], [ 79.29899, 10.26334 ], [ 79.30166, 10.26463 ], [ 79.30482, 10.26523 ], [ 79.30754, 10.26559 ], [ 79.31063, 10.26885 ], [ 79.31423, 10.27328 ], [ 79.31991, 10.27794 ], [ 79.32266, 10.2794 ], [ 79.32365, 10.28002 ], [ 79.3278, 10.28263 ], [ 79.33167, 10.28441 ], [ 79.33537, 10.28543 ], [ 79.3401, 10.28649 ], [ 79.34531, 10.28636 ], [ 79.34817, 10.28555 ], [ 79.35098, 10.28563 ], [ 79.3596, 10.28897 ], [ 79.36679, 10.29245 ], [ 79.36879, 10.29365 ], [ 79.36944, 10.29398 ], [ 79.37274, 10.29728 ], [ 79.37699, 10.30341 ], [ 79.37837, 10.30654 ], [ 79.37963, 10.30925 ], [ 79.38124, 10.3119 ], [ 79.38232, 10.31337 ], [ 79.38517, 10.31569 ], [ 79.39044, 10.31661 ], [ 79.39976, 10.31722 ], [ 79.40536, 10.31722 ], [ 79.41033, 10.31662 ], [ 79.41779, 10.3157 ], [ 79.45447, 10.31298 ], [ 79.46971, 10.31144 ], [ 79.49593, 10.30891 ], [ 79.50641, 10.30809 ], [ 79.51012, 10.30837 ], [ 79.51227, 10.30849 ], [ 79.51371, 10.3097 ], [ 79.51598, 10.31166 ], [ 79.51754, 10.31275 ], [ 79.51848, 10.31408 ], [ 79.51883, 10.31558 ], [ 79.51857, 10.31617 ], [ 79.51784, 10.31643 ], [ 79.51308, 10.31537 ], [ 79.51036, 10.31499 ], [ 79.50193, 10.31558 ], [ 79.49012, 10.31741 ], [ 79.48172, 10.31818 ], [ 79.47619, 10.31919 ], [ 79.47421, 10.32001 ], [ 79.47203, 10.32153 ], [ 79.47168, 10.32302 ], [ 79.47199, 10.32454 ], [ 79.47266, 10.3255 ], [ 79.47383, 10.32552 ], [ 79.48215, 10.32172 ], [ 79.48219, 10.3243 ], [ 79.48196, 10.32613 ], [ 79.48176, 10.32876 ], [ 79.48114, 10.33028 ], [ 79.47897, 10.33303 ], [ 79.47543, 10.33419 ], [ 79.47408, 10.335 ], [ 79.47378, 10.33617 ], [ 79.47531, 10.33713 ], [ 79.47813, 10.33811 ], [ 79.48146, 10.33822 ], [ 79.4835, 10.33772 ], [ 79.48424, 10.33684 ], [ 79.48519, 10.33364 ], [ 79.4887, 10.33042 ], [ 79.49295, 10.32846 ], [ 79.49482, 10.32754 ], [ 79.49513, 10.32602 ], [ 79.49357, 10.32571 ], [ 79.4914, 10.32754 ], [ 79.48798, 10.32968 ], [ 79.48674, 10.32968 ], [ 79.4858, 10.32845 ], [ 79.48572, 10.32691 ], [ 79.48676, 10.32545 ], [ 79.48854, 10.32472 ], [ 79.49015, 10.32327 ], [ 79.49232, 10.32022 ], [ 79.49543, 10.31808 ], [ 79.49823, 10.31778 ], [ 79.50072, 10.31808 ], [ 79.50383, 10.31992 ], [ 79.50538, 10.32144 ], [ 79.50601, 10.32358 ], [ 79.5057, 10.32907 ], [ 79.50601, 10.33274 ], [ 79.50664, 10.33457 ], [ 79.5085, 10.33487 ], [ 79.50943, 10.33426 ], [ 79.51043, 10.33259 ], [ 79.51192, 10.32877 ], [ 79.51244, 10.32661 ], [ 79.51316, 10.32389 ], [ 79.51398, 10.32152 ], [ 79.51576, 10.32065 ], [ 79.51844, 10.32114 ], [ 79.51906, 10.32267 ], [ 79.51813, 10.32481 ], [ 79.5172, 10.32725 ], [ 79.51845, 10.32969 ], [ 79.52031, 10.33061 ], [ 79.52435, 10.33 ], [ 79.52684, 10.32817 ], [ 79.52746, 10.32725 ], [ 79.52777, 10.32634 ], [ 79.52746, 10.32542 ], [ 79.52621, 10.32542 ], [ 79.52435, 10.32664 ], [ 79.52248, 10.32664 ], [ 79.52171, 10.32547 ], [ 79.52093, 10.32359 ], [ 79.5203, 10.32084 ], [ 79.5203, 10.3187 ], [ 79.52217, 10.31748 ], [ 79.52403, 10.31748 ], [ 79.52527, 10.31749 ], [ 79.52714, 10.31932 ], [ 79.52923, 10.32091 ], [ 79.5324, 10.32195 ], [ 79.53767, 10.32195 ], [ 79.53978, 10.32299 ], [ 79.54188, 10.32558 ], [ 79.54224, 10.32757 ], [ 79.54189, 10.3292 ], [ 79.53679, 10.33363 ], [ 79.53588, 10.33537 ], [ 79.53598, 10.33573 ], [ 79.535, 10.33648 ], [ 79.5349, 10.33656 ], [ 79.53349, 10.33755 ], [ 79.52796, 10.34041 ], [ 79.51134, 10.34756 ], [ 79.50828, 10.34905 ], [ 79.5077, 10.34936 ], [ 79.50561, 10.35092 ], [ 79.50552, 10.35143 ], [ 79.50423, 10.35226 ], [ 79.50421, 10.3529 ], [ 79.50419, 10.35336 ], [ 79.50415, 10.35437 ], [ 79.5044, 10.3551 ], [ 79.50445, 10.35525 ], [ 79.50523, 10.35599 ], [ 79.5054, 10.35615 ], [ 79.50637, 10.35617 ], [ 79.50713, 10.35563 ], [ 79.50804, 10.35499 ], [ 79.50856, 10.35471 ], [ 79.50855, 10.35505 ], [ 79.50853, 10.35593 ], [ 79.50841, 10.36195 ], [ 79.50836, 10.36392 ], [ 79.50611, 10.36858 ], [ 79.50559, 10.36966 ], [ 79.50544, 10.36993 ], [ 79.50538, 10.37004 ], [ 79.50423, 10.37026 ], [ 79.50421, 10.37026 ], [ 79.4977, 10.37149 ], [ 79.49373, 10.37344 ], [ 79.49164, 10.37446 ], [ 79.48982, 10.37698 ], [ 79.48877, 10.37844 ], [ 79.48869, 10.37855 ], [ 79.48755, 10.38013 ], [ 79.48629, 10.38188 ], [ 79.48587, 10.38147 ], [ 79.48538, 10.381 ], [ 79.48535, 10.38097 ], [ 79.48519, 10.38081 ], [ 79.48449, 10.38011 ], [ 79.48441, 10.38003 ], [ 79.4821, 10.37776 ], [ 79.48162, 10.37729 ], [ 79.48012, 10.37582 ], [ 79.47959, 10.3753 ], [ 79.47889, 10.37461 ], [ 79.47783, 10.37361 ], [ 79.47705, 10.37374 ], [ 79.47272, 10.37446 ], [ 79.47209, 10.37457 ], [ 79.46394, 10.37557 ], [ 79.46221, 10.37578 ], [ 79.46535, 10.37973 ], [ 79.4679, 10.38294 ], [ 79.46825, 10.38338 ], [ 79.46834, 10.38349 ], [ 79.47129, 10.38722 ], [ 79.46998, 10.38982 ], [ 79.46906, 10.39164 ], [ 79.46863, 10.39157 ], [ 79.46836, 10.39152 ], [ 79.46816, 10.39188 ], [ 79.46785, 10.39238 ], [ 79.46697, 10.39352 ], [ 79.46683, 10.39391 ], [ 79.46649, 10.39419 ], [ 79.46633, 10.39446 ], [ 79.46615, 10.39484 ], [ 79.46599, 10.39511 ], [ 79.46584, 10.39525 ], [ 79.46562, 10.3953 ], [ 79.46536, 10.39523 ], [ 79.46514, 10.39503 ], [ 79.46495, 10.39481 ], [ 79.46481, 10.39467 ], [ 79.46461, 10.39465 ], [ 79.46432, 10.3947 ], [ 79.46403, 10.39482 ], [ 79.46361, 10.39494 ], [ 79.4634, 10.39504 ], [ 79.46268, 10.39547 ], [ 79.46261, 10.39574 ], [ 79.46262, 10.39612 ], [ 79.46267, 10.3967 ], [ 79.4628, 10.39724 ], [ 79.46297, 10.3977 ], [ 79.46311, 10.39803 ], [ 79.46315, 10.39812 ], [ 79.46333, 10.39855 ], [ 79.46363, 10.39885 ], [ 79.46388, 10.39909 ], [ 79.46436, 10.39923 ], [ 79.46451, 10.39929 ], [ 79.46511, 10.39947 ], [ 79.46551, 10.3997 ], [ 79.46605, 10.39992 ], [ 79.4664, 10.40007 ], [ 79.4665, 10.40011 ], [ 79.46692, 10.40011 ], [ 79.46733, 10.39998 ], [ 79.4677, 10.39984 ], [ 79.46835, 10.39955 ], [ 79.46889, 10.39936 ], [ 79.46957, 10.39915 ], [ 79.47001, 10.39905 ], [ 79.47008, 10.39903 ], [ 79.47036, 10.39893 ], [ 79.4706, 10.39876 ], [ 79.47067, 10.39863 ], [ 79.4709, 10.39819 ], [ 79.47101, 10.39799 ], [ 79.47114, 10.39783 ], [ 79.47148, 10.39771 ], [ 79.47167, 10.39767 ], [ 79.47196, 10.39771 ], [ 79.47225, 10.39779 ], [ 79.47263, 10.39789 ], [ 79.47302, 10.39799 ], [ 79.47382, 10.39827 ], [ 79.47517, 10.39856 ], [ 79.47622, 10.39879 ], [ 79.47645, 10.39884 ], [ 79.47669, 10.39888 ], [ 79.47741, 10.399 ], [ 79.47786, 10.39908 ], [ 79.4784, 10.39917 ], [ 79.48031, 10.3995 ], [ 79.47912, 10.40156 ], [ 79.47778, 10.4039 ], [ 79.47753, 10.40433 ], [ 79.47638, 10.40634 ], [ 79.47505, 10.40867 ], [ 79.47367, 10.40942 ], [ 79.47357, 10.40947 ], [ 79.47294, 10.40981 ], [ 79.46858, 10.41215 ], [ 79.46815, 10.41238 ], [ 79.46622, 10.41342 ], [ 79.46626, 10.41404 ], [ 79.46633, 10.41499 ], [ 79.46634, 10.41519 ], [ 79.46641, 10.41625 ], [ 79.46646, 10.417 ], [ 79.46655, 10.41841 ], [ 79.46042, 10.41951 ], [ 79.46011, 10.41957 ], [ 79.4598, 10.42059 ], [ 79.45951, 10.42151 ], [ 79.45929, 10.42222 ], [ 79.45926, 10.42231 ], [ 79.45718, 10.42898 ], [ 79.45532, 10.43192 ], [ 79.45418, 10.43373 ], [ 79.45346, 10.43486 ], [ 79.45316, 10.43535 ], [ 79.45861, 10.43457 ], [ 79.46072, 10.43427 ], [ 79.4678, 10.43608 ], [ 79.46928, 10.43656 ], [ 79.47184, 10.4374 ], [ 79.47212, 10.43749 ], [ 79.47233, 10.43762 ], [ 79.47411, 10.43876 ], [ 79.47417, 10.4388 ], [ 79.47891, 10.4418 ], [ 79.48059, 10.44287 ], [ 79.477, 10.44426 ], [ 79.47548, 10.44485 ], [ 79.47525, 10.44494 ], [ 79.4748, 10.44763 ], [ 79.47474, 10.44799 ], [ 79.47461, 10.44878 ], [ 79.47406, 10.45213 ], [ 79.47315, 10.4541 ], [ 79.4725, 10.4555 ], [ 79.47171, 10.4572 ], [ 79.47083, 10.45909 ], [ 79.47389, 10.46138 ], [ 79.47658, 10.46339 ], [ 79.47691, 10.46364 ], [ 79.47827, 10.46466 ], [ 79.48079, 10.47081 ], [ 79.48088, 10.47105 ], [ 79.48127, 10.47203 ], [ 79.48161, 10.47289 ], [ 79.48181, 10.47521 ], [ 79.48237, 10.47568 ], [ 79.48254, 10.4759 ], [ 79.48273, 10.47614 ], [ 79.48289, 10.47651 ], [ 79.4841, 10.4792 ], [ 79.48409, 10.48227 ], [ 79.48426, 10.48656 ], [ 79.48408, 10.48701 ], [ 79.48398, 10.48754 ], [ 79.48408, 10.48872 ], [ 79.48375, 10.48902 ], [ 79.48345, 10.48929 ], [ 79.48025, 10.49215 ], [ 79.47978, 10.49257 ], [ 79.47883, 10.4926 ], [ 79.47181, 10.49281 ], [ 79.46932, 10.4917 ], [ 79.46709, 10.4907 ], [ 79.46459, 10.48958 ], [ 79.46274, 10.48876 ], [ 79.461, 10.49012 ], [ 79.45749, 10.49284 ], [ 79.45538, 10.49447 ], [ 79.45621, 10.49573 ], [ 79.45645, 10.4961 ], [ 79.45715, 10.49717 ], [ 79.45987, 10.50131 ], [ 79.46017, 10.50178 ], [ 79.46032, 10.502 ], [ 79.46074, 10.50265 ], [ 79.46185, 10.50434 ], [ 79.46205, 10.50464 ], [ 79.46267, 10.50517 ], [ 79.46402, 10.5063 ], [ 79.46934, 10.5108 ], [ 79.46818, 10.51149 ], [ 79.46608, 10.5127 ], [ 79.46401, 10.51389 ], [ 79.45961, 10.51442 ], [ 79.45938, 10.51461 ], [ 79.45925, 10.51448 ], [ 79.45906, 10.51501 ], [ 79.45866, 10.5161 ], [ 79.45815, 10.51749 ], [ 79.45763, 10.51891 ], [ 79.45747, 10.51934 ], [ 79.45731, 10.51977 ], [ 79.45727, 10.51979 ], [ 79.45597, 10.52045 ], [ 79.45456, 10.52116 ], [ 79.45326, 10.52181 ], [ 79.4531, 10.5218 ], [ 79.4478, 10.5213 ], [ 79.44467, 10.52218 ], [ 79.44249, 10.52279 ], [ 79.44114, 10.52511 ], [ 79.44108, 10.52521 ], [ 79.44072, 10.52582 ], [ 79.43921, 10.52841 ], [ 79.43822, 10.52951 ], [ 79.43633, 10.5316 ], [ 79.43606, 10.53189 ], [ 79.43516, 10.53288 ], [ 79.43499, 10.53307 ], [ 79.43431, 10.53325 ], [ 79.43232, 10.53377 ], [ 79.43076, 10.53418 ], [ 79.42776, 10.53496 ], [ 79.42517, 10.53564 ], [ 79.42472, 10.53576 ], [ 79.42529, 10.53734 ], [ 79.42579, 10.53872 ], [ 79.42717, 10.54256 ], [ 79.42806, 10.54292 ], [ 79.42818, 10.54297 ], [ 79.42979, 10.54361 ], [ 79.43308, 10.54494 ], [ 79.4335, 10.54511 ], [ 79.43663, 10.54531 ], [ 79.43717, 10.54535 ], [ 79.43783, 10.5454 ], [ 79.43808, 10.54542 ], [ 79.43839, 10.54554 ], [ 79.44003, 10.54635 ], [ 79.44087, 10.54677 ], [ 79.44215, 10.5474 ], [ 79.44251, 10.54758 ], [ 79.44269, 10.54766 ], [ 79.4473, 10.54975 ], [ 79.44846, 10.55027 ], [ 79.45378, 10.55067 ], [ 79.45122, 10.55746 ], [ 79.44655, 10.55711 ], [ 79.44601, 10.55733 ], [ 79.44423, 10.55805 ], [ 79.44236, 10.55881 ], [ 79.44034, 10.55963 ], [ 79.4402, 10.55966 ], [ 79.43946, 10.55951 ], [ 79.4356, 10.55765 ], [ 79.43436, 10.55705 ], [ 79.43346, 10.55754 ], [ 79.42745, 10.56082 ], [ 79.42646, 10.55828 ], [ 79.42622, 10.55766 ], [ 79.42565, 10.55619 ], [ 79.42208, 10.55111 ], [ 79.42097, 10.54953 ], [ 79.42093, 10.54947 ], [ 79.42084, 10.54951 ], [ 79.4154, 10.55193 ], [ 79.41413, 10.5518 ], [ 79.41244, 10.55162 ], [ 79.40819, 10.55116 ], [ 79.40395, 10.55394 ], [ 79.40085, 10.55596 ], [ 79.40075, 10.55602 ], [ 79.39978, 10.55666 ], [ 79.39969, 10.5572 ], [ 79.39956, 10.55805 ], [ 79.39954, 10.55818 ], [ 79.39929, 10.55975 ], [ 79.39886, 10.5625 ], [ 79.39934, 10.56722 ], [ 79.39955, 10.56924 ], [ 79.39993, 10.5729 ], [ 79.40299, 10.57687 ], [ 79.40164, 10.57766 ], [ 79.39966, 10.57882 ], [ 79.39908, 10.57916 ], [ 79.39895, 10.57923 ], [ 79.39616, 10.58087 ], [ 79.39105, 10.58275 ], [ 79.38941, 10.58335 ], [ 79.38352, 10.58233 ], [ 79.38244, 10.58187 ], [ 79.37793, 10.57993 ], [ 79.37678, 10.57944 ], [ 79.37366, 10.57934 ], [ 79.37012, 10.57923 ], [ 79.36906, 10.57923 ], [ 79.36304, 10.5792 ], [ 79.35493, 10.58363 ], [ 79.35358, 10.58437 ], [ 79.35011, 10.58627 ], [ 79.34833, 10.58922 ], [ 79.34735, 10.59085 ], [ 79.34727, 10.59098 ], [ 79.34775, 10.59268 ], [ 79.34866, 10.59587 ], [ 79.34898, 10.59699 ], [ 79.34787, 10.60678 ], [ 79.34812, 10.60699 ], [ 79.34895, 10.60769 ], [ 79.34915, 10.60786 ], [ 79.34967, 10.60829 ], [ 79.35115, 10.60952 ], [ 79.35239, 10.61056 ], [ 79.35223, 10.61093 ], [ 79.35193, 10.61163 ], [ 79.35151, 10.6126 ], [ 79.35141, 10.61282 ], [ 79.35017, 10.61567 ], [ 79.34914, 10.61945 ], [ 79.34896, 10.62011 ], [ 79.34887, 10.62043 ], [ 79.34676, 10.62312 ], [ 79.34515, 10.62517 ], [ 79.34577, 10.62551 ], [ 79.34657, 10.62594 ], [ 79.34821, 10.62683 ], [ 79.34928, 10.62741 ], [ 79.3517, 10.62873 ], [ 79.35275, 10.6293 ], [ 79.35301, 10.62944 ], [ 79.35335, 10.63099 ], [ 79.35397, 10.63383 ], [ 79.35429, 10.63533 ], [ 79.35468, 10.63714 ], [ 79.35484, 10.63787 ], [ 79.3552, 10.63953 ], [ 79.35532, 10.64007 ], [ 79.35558, 10.64123 ], [ 79.35705, 10.64788 ], [ 79.3571, 10.64812 ], [ 79.35697, 10.6481 ], [ 79.35119, 10.6472 ], [ 79.35094, 10.64762 ], [ 79.35065, 10.6481 ], [ 79.35017, 10.6489 ], [ 79.34985, 10.64943 ], [ 79.34799, 10.65251 ], [ 79.3479, 10.65266 ], [ 79.34507, 10.65506 ], [ 79.34283, 10.65695 ], [ 79.34224, 10.65745 ], [ 79.34103, 10.65848 ], [ 79.33903, 10.65861 ], [ 79.33118, 10.65911 ], [ 79.32954, 10.65938 ], [ 79.32935, 10.65941 ], [ 79.31781, 10.66135 ], [ 79.31703, 10.66751 ], [ 79.31713, 10.67064 ], [ 79.31718, 10.67225 ], [ 79.31723, 10.67377 ], [ 79.31728, 10.67512 ], [ 79.3173, 10.67519 ], [ 79.31791, 10.67711 ], [ 79.31871, 10.67964 ], [ 79.31867, 10.68092 ], [ 79.31873, 10.68186 ], [ 79.31863, 10.68214 ], [ 79.31853, 10.68239 ], [ 79.31882, 10.68683 ], [ 79.31878, 10.68762 ], [ 79.31814, 10.68878 ], [ 79.31608, 10.69252 ], [ 79.31404, 10.69622 ], [ 79.31387, 10.69651 ], [ 79.31068, 10.70231 ], [ 79.30941, 10.70461 ], [ 79.30666, 10.70959 ], [ 79.30787, 10.71648 ], [ 79.30809, 10.7177 ], [ 79.30762, 10.72045 ], [ 79.30724, 10.72267 ], [ 79.30751, 10.72344 ], [ 79.3074, 10.7241 ], [ 79.30702, 10.72595 ], [ 79.30692, 10.72647 ], [ 79.30679, 10.72712 ], [ 79.30669, 10.72757 ], [ 79.30656, 10.72799 ], [ 79.30596, 10.72982 ], [ 79.30565, 10.73101 ], [ 79.30442, 10.73553 ], [ 79.30119, 10.73515 ], [ 79.30018, 10.73632 ], [ 79.30034, 10.73685 ], [ 79.30105, 10.73918 ], [ 79.30111, 10.73941 ], [ 79.30187, 10.74193 ], [ 79.30215, 10.74228 ], [ 79.30308, 10.7434 ], [ 79.30505, 10.74579 ], [ 79.3062, 10.74598 ], [ 79.30956, 10.74655 ], [ 79.30984, 10.74597 ], [ 79.31253, 10.74035 ], [ 79.31699, 10.74007 ], [ 79.31756, 10.74003 ], [ 79.31891, 10.73995 ], [ 79.31981, 10.7399 ], [ 79.32453, 10.7396 ], [ 79.32598, 10.73959 ], [ 79.3292, 10.73955 ], [ 79.33457, 10.73948 ], [ 79.33599, 10.73944 ], [ 79.33656, 10.73946 ], [ 79.3402, 10.74015 ], [ 79.34022, 10.74015 ], [ 79.34053, 10.74021 ], [ 79.34289, 10.74066 ], [ 79.34459, 10.74155 ], [ 79.34492, 10.74173 ], [ 79.34514, 10.74184 ], [ 79.34693, 10.74278 ], [ 79.35002, 10.7444 ], [ 79.35008, 10.74507 ], [ 79.35032, 10.74759 ], [ 79.35055, 10.75002 ], [ 79.35397, 10.74988 ], [ 79.35656, 10.74977 ], [ 79.35663, 10.74977 ], [ 79.35726, 10.74974 ], [ 79.35749, 10.75019 ], [ 79.35791, 10.75104 ], [ 79.35833, 10.7519 ], [ 79.35869, 10.75262 ], [ 79.35875, 10.75275 ], [ 79.35915, 10.75354 ], [ 79.36047, 10.7562 ], [ 79.36264, 10.76305 ], [ 79.36178, 10.76343 ], [ 79.36107, 10.76374 ], [ 79.36033, 10.76407 ], [ 79.35981, 10.7643 ], [ 79.35974, 10.76433 ], [ 79.35741, 10.76537 ], [ 79.34754, 10.76791 ], [ 79.34547, 10.76844 ], [ 79.34536, 10.77244 ], [ 79.34524, 10.77654 ], [ 79.34521, 10.77772 ], [ 79.3452, 10.77839 ], [ 79.34516, 10.78073 ], [ 79.34516, 10.78085 ], [ 79.34516, 10.78095 ], [ 79.34515, 10.78182 ], [ 79.34655, 10.78273 ], [ 79.34745, 10.78331 ], [ 79.3506, 10.78533 ], [ 79.35105, 10.7867 ], [ 79.35202, 10.78968 ], [ 79.35266, 10.79163 ], [ 79.35329, 10.79357 ], [ 79.35696, 10.79368 ], [ 79.35889, 10.79374 ], [ 79.35928, 10.79375 ], [ 79.36323, 10.79386 ], [ 79.36376, 10.79407 ], [ 79.36766, 10.79559 ], [ 79.36934, 10.79624 ], [ 79.37075, 10.79789 ], [ 79.37087, 10.79802 ], [ 79.37094, 10.79809 ], [ 79.37121, 10.79842 ], [ 79.37126, 10.79857 ], [ 79.37164, 10.80059 ], [ 79.37057, 10.80276 ], [ 79.3701, 10.80382 ], [ 79.36997, 10.80442 ], [ 79.36982, 10.80514 ], [ 79.36982, 10.80596 ], [ 79.36969, 10.80678 ], [ 79.36935, 10.80704 ], [ 79.36872, 10.80728 ], [ 79.36802, 10.80742 ], [ 79.36725, 10.80756 ], [ 79.36606, 10.80735 ], [ 79.36462, 10.80714 ], [ 79.36339, 10.80742 ], [ 79.36302, 10.80751 ], [ 79.36185, 10.80775 ], [ 79.36142, 10.80807 ], [ 79.36057, 10.8087 ], [ 79.36024, 10.80874 ], [ 79.35981, 10.80881 ], [ 79.35896, 10.80914 ], [ 79.35866, 10.80925 ], [ 79.35789, 10.80971 ], [ 79.35687, 10.81056 ], [ 79.35638, 10.81092 ], [ 79.35597, 10.81122 ], [ 79.35591, 10.81127 ], [ 79.35516, 10.81183 ], [ 79.35412, 10.81263 ], [ 79.35328, 10.81345 ], [ 79.35309, 10.81331 ], [ 79.35294, 10.81325 ], [ 79.35271, 10.81325 ], [ 79.35256, 10.8133 ], [ 79.35246, 10.81342 ], [ 79.35231, 10.81357 ], [ 79.35198, 10.81364 ], [ 79.35164, 10.81358 ], [ 79.35063, 10.81341 ], [ 79.34826, 10.81315 ], [ 79.34765, 10.81308 ], [ 79.34736, 10.81305 ], [ 79.34697, 10.81301 ], [ 79.34543, 10.81276 ], [ 79.34399, 10.81267 ], [ 79.34266, 10.8125 ], [ 79.3416, 10.81236 ], [ 79.34044, 10.81238 ], [ 79.33945, 10.81269 ], [ 79.33876, 10.81309 ], [ 79.33825, 10.81346 ], [ 79.33798, 10.81392 ], [ 79.33768, 10.81444 ], [ 79.33745, 10.81454 ], [ 79.33668, 10.81449 ], [ 79.33607, 10.81434 ], [ 79.33593, 10.81431 ], [ 79.33484, 10.8138 ], [ 79.33395, 10.8133 ], [ 79.33311, 10.81272 ], [ 79.33235, 10.81203 ], [ 79.33164, 10.81134 ], [ 79.33156, 10.81122 ], [ 79.3311, 10.81052 ], [ 79.33063, 10.80981 ], [ 79.33032, 10.81032 ], [ 79.33021, 10.81051 ], [ 79.33003, 10.8111 ], [ 79.32999, 10.81122 ], [ 79.32999, 10.81244 ], [ 79.33009, 10.81369 ], [ 79.33022, 10.81424 ], [ 79.33024, 10.81433 ], [ 79.3305, 10.81468 ], [ 79.33087, 10.81509 ], [ 79.33098, 10.81528 ], [ 79.33101, 10.8156 ], [ 79.33097, 10.81581 ], [ 79.33089, 10.81594 ], [ 79.33052, 10.81616 ], [ 79.33009, 10.81646 ], [ 79.32918, 10.81705 ], [ 79.32823, 10.81738 ], [ 79.32746, 10.81748 ], [ 79.32735, 10.8175 ], [ 79.32684, 10.81758 ], [ 79.32656, 10.8178 ], [ 79.32646, 10.81798 ], [ 79.3264, 10.81826 ], [ 79.32641, 10.81859 ], [ 79.32644, 10.8187 ], [ 79.3265, 10.8189 ], [ 79.32647, 10.81911 ], [ 79.32639, 10.81921 ], [ 79.32583, 10.8193 ], [ 79.32562, 10.81933 ], [ 79.32402, 10.81929 ], [ 79.32328, 10.81962 ], [ 79.32294, 10.81977 ], [ 79.3227, 10.81976 ], [ 79.32253, 10.81965 ], [ 79.32211, 10.81941 ], [ 79.32162, 10.81932 ], [ 79.32109, 10.81939 ], [ 79.32048, 10.81957 ], [ 79.31992, 10.81999 ], [ 79.31965, 10.82028 ], [ 79.31957, 10.82035 ], [ 79.31945, 10.8204 ], [ 79.31934, 10.82041 ], [ 79.31931, 10.82135 ], [ 79.31911, 10.82135 ], [ 79.31891, 10.82138 ], [ 79.31868, 10.82158 ], [ 79.31809, 10.82194 ], [ 79.31726, 10.82233 ], [ 79.31659, 10.8224 ], [ 79.31619, 10.82222 ], [ 79.31579, 10.82212 ], [ 79.31491, 10.82196 ], [ 79.3146, 10.82193 ], [ 79.31419, 10.8219 ], [ 79.31388, 10.82197 ], [ 79.3134, 10.82208 ], [ 79.31301, 10.82219 ], [ 79.31262, 10.82239 ], [ 79.31226, 10.82259 ], [ 79.31191, 10.82279 ], [ 79.31143, 10.82281 ], [ 79.31084, 10.82296 ], [ 79.31025, 10.82328 ], [ 79.30938, 10.82354 ], [ 79.30907, 10.82374 ], [ 79.30868, 10.82415 ], [ 79.3085, 10.82482 ], [ 79.30823, 10.82532 ], [ 79.30769, 10.82585 ], [ 79.30686, 10.8262 ], [ 79.30606, 10.82639 ], [ 79.30574, 10.8265 ], [ 79.30568, 10.82651 ], [ 79.30503, 10.82661 ], [ 79.30478, 10.82658 ], [ 79.30458, 10.82655 ], [ 79.30394, 10.82649 ], [ 79.30372, 10.82652 ], [ 79.30334, 10.82656 ], [ 79.30286, 10.82659 ], [ 79.30262, 10.82658 ], [ 79.3025, 10.82666 ], [ 79.30223, 10.82708 ], [ 79.30203, 10.82728 ], [ 79.30179, 10.82727 ], [ 79.30151, 10.82727 ], [ 79.30103, 10.82717 ], [ 79.3005, 10.82699 ], [ 79.29935, 10.82686 ], [ 79.29926, 10.82739 ], [ 79.29918, 10.82776 ], [ 79.29902, 10.82853 ], [ 79.299, 10.8286 ], [ 79.29884, 10.82917 ], [ 79.29862, 10.82954 ], [ 79.29835, 10.82999 ], [ 79.29747, 10.83076 ], [ 79.29668, 10.83153 ], [ 79.29642, 10.83172 ], [ 79.29591, 10.83209 ], [ 79.29527, 10.83237 ], [ 79.29422, 10.83242 ], [ 79.29385, 10.83244 ], [ 79.29252, 10.8325 ], [ 79.29174, 10.83252 ], [ 79.2914, 10.83263 ], [ 79.29131, 10.83324 ], [ 79.29171, 10.83385 ], [ 79.292, 10.8345 ], [ 79.29207, 10.83466 ], [ 79.29233, 10.83529 ], [ 79.29253, 10.83602 ], [ 79.29255, 10.83609 ], [ 79.29289, 10.83724 ], [ 79.29313, 10.83835 ], [ 79.29314, 10.83875 ], [ 79.29306, 10.83939 ], [ 79.29311, 10.83989 ], [ 79.29339, 10.84019 ], [ 79.29369, 10.84019 ], [ 79.29407, 10.8402 ], [ 79.29424, 10.84013 ], [ 79.29461, 10.8401 ], [ 79.29489, 10.84017 ], [ 79.29517, 10.84054 ], [ 79.29537, 10.84095 ], [ 79.2957, 10.84189 ], [ 79.29604, 10.84281 ], [ 79.29627, 10.84393 ], [ 79.2966, 10.84572 ], [ 79.29677, 10.84676 ], [ 79.29681, 10.84823 ], [ 79.2968, 10.84898 ], [ 79.29665, 10.84959 ], [ 79.29645, 10.84985 ], [ 79.29619, 10.85026 ], [ 79.29563, 10.85097 ], [ 79.29528, 10.85157 ], [ 79.29506, 10.85224 ], [ 79.2949, 10.85306 ], [ 79.29493, 10.85339 ], [ 79.29495, 10.85357 ], [ 79.29499, 10.85477 ], [ 79.2949, 10.85546 ], [ 79.29506, 10.85614 ], [ 79.29524, 10.85654 ], [ 79.29546, 10.85694 ], [ 79.29564, 10.85737 ], [ 79.29576, 10.85794 ], [ 79.29593, 10.85905 ], [ 79.29598, 10.85977 ], [ 79.2961, 10.86037 ], [ 79.29613, 10.86127 ], [ 79.29623, 10.86234 ], [ 79.29614, 10.86277 ], [ 79.29578, 10.86312 ], [ 79.29528, 10.8634 ], [ 79.29485, 10.86365 ], [ 79.29461, 10.86379 ], [ 79.29393, 10.86428 ], [ 79.29368, 10.86458 ], [ 79.2935, 10.86481 ], [ 79.29315, 10.86559 ], [ 79.29293, 10.86623 ], [ 79.29283, 10.86734 ], [ 79.29276, 10.86848 ], [ 79.29254, 10.86905 ], [ 79.29201, 10.86955 ], [ 79.29101, 10.87011 ], [ 79.29061, 10.87036 ], [ 79.29043, 10.87047 ], [ 79.29022, 10.8706 ], [ 79.28961, 10.87084 ], [ 79.28951, 10.87086 ], [ 79.28823, 10.87119 ], [ 79.28767, 10.87124 ], [ 79.28626, 10.87138 ], [ 79.28477, 10.87158 ], [ 79.28358, 10.87175 ], [ 79.28342, 10.87181 ], [ 79.28291, 10.87199 ], [ 79.2822, 10.8722 ], [ 79.28184, 10.87235 ], [ 79.28143, 10.87251 ], [ 79.2809, 10.8729 ], [ 79.28003, 10.87329 ], [ 79.27881, 10.87367 ], [ 79.27765, 10.87402 ], [ 79.27681, 10.87451 ], [ 79.27656, 10.8747 ], [ 79.27625, 10.87494 ], [ 79.27607, 10.8753 ], [ 79.27599, 10.87547 ], [ 79.27578, 10.87612 ], [ 79.27576, 10.87669 ], [ 79.27575, 10.87733 ], [ 79.27563, 10.8778 ], [ 79.27554, 10.87819 ], [ 79.27539, 10.87858 ], [ 79.2752, 10.87901 ], [ 79.27498, 10.87955 ], [ 79.27479, 10.88009 ], [ 79.27468, 10.88062 ], [ 79.2747, 10.88134 ], [ 79.27472, 10.88181 ], [ 79.27488, 10.88218 ], [ 79.27438, 10.8829 ], [ 79.27376, 10.88351 ], [ 79.27301, 10.8845 ], [ 79.27254, 10.886 ], [ 79.27169, 10.88721 ], [ 79.27105, 10.88837 ], [ 79.27042, 10.88913 ], [ 79.27004, 10.88959 ], [ 79.26886, 10.89052 ], [ 79.26818, 10.891 ], [ 79.26886, 10.89145 ], [ 79.26966, 10.89162 ], [ 79.27009, 10.89176 ], [ 79.27068, 10.89196 ], [ 79.27164, 10.8923 ], [ 79.27241, 10.89309 ], [ 79.27281, 10.89381 ], [ 79.27292, 10.89413 ], [ 79.27316, 10.89487 ], [ 79.27323, 10.89527 ], [ 79.2733, 10.8957 ], [ 79.27334, 10.89676 ], [ 79.27316, 10.89754 ], [ 79.2726, 10.89798 ], [ 79.27246, 10.89859 ], [ 79.27252, 10.89881 ], [ 79.27305, 10.89904 ], [ 79.27339, 10.89965 ], [ 79.27336, 10.90032 ], [ 79.27286, 10.90093 ], [ 79.27235, 10.90132 ], [ 79.27225, 10.90159 ], [ 79.27216, 10.90181 ], [ 79.27228, 10.90232 ], [ 79.27231, 10.90332 ], [ 79.27212, 10.90388 ], [ 79.27167, 10.90449 ], [ 79.27096, 10.90476 ], [ 79.27015, 10.90526 ], [ 79.26985, 10.90568 ], [ 79.26975, 10.90581 ], [ 79.26962, 10.9067 ], [ 79.26963, 10.9068 ], [ 79.26975, 10.90814 ], [ 79.26989, 10.90808 ], [ 79.27092, 10.90774 ], [ 79.27189, 10.90724 ], [ 79.27256, 10.90674 ], [ 79.27319, 10.90646 ], [ 79.27352, 10.90637 ], [ 79.2739, 10.90637 ], [ 79.27403, 10.90656 ], [ 79.27407, 10.90675 ], [ 79.27482, 10.90654 ], [ 79.27552, 10.90659 ], [ 79.27664, 10.9067 ], [ 79.27761, 10.90675 ], [ 79.27832, 10.90675 ], [ 79.27864, 10.90675 ], [ 79.27928, 10.90635 ], [ 79.2801, 10.90544 ], [ 79.28088, 10.90444 ], [ 79.2818, 10.90363 ], [ 79.28253, 10.90318 ], [ 79.28374, 10.90293 ], [ 79.28509, 10.90283 ], [ 79.28617, 10.90281 ], [ 79.28719, 10.90278 ], [ 79.28741, 10.90277 ], [ 79.28921, 10.90272 ], [ 79.29071, 10.90287 ], [ 79.29103, 10.90289 ], [ 79.29268, 10.90301 ], [ 79.29422, 10.90291 ], [ 79.2959, 10.90284 ], [ 79.29685, 10.9028 ], [ 79.29872, 10.90251 ], [ 79.29882, 10.90249 ], [ 79.29881, 10.90253 ], [ 79.29851, 10.90339 ], [ 79.29833, 10.90394 ], [ 79.29821, 10.90489 ], [ 79.29824, 10.90566 ], [ 79.29821, 10.90631 ], [ 79.29817, 10.90706 ], [ 79.29794, 10.90766 ], [ 79.29748, 10.90787 ], [ 79.29685, 10.90782 ], [ 79.29588, 10.90763 ], [ 79.29484, 10.90743 ], [ 79.29358, 10.90739 ], [ 79.29179, 10.9074 ], [ 79.29114, 10.9074 ], [ 79.29094, 10.90762 ], [ 79.29082, 10.90776 ], [ 79.29059, 10.90826 ], [ 79.29046, 10.90901 ], [ 79.2904, 10.91121 ], [ 79.29037, 10.91216 ], [ 79.29039, 10.91347 ], [ 79.29036, 10.91361 ], [ 79.29022, 10.91432 ], [ 79.28967, 10.91507 ], [ 79.28915, 10.91564 ], [ 79.28902, 10.91578 ], [ 79.28852, 10.91633 ], [ 79.28751, 10.91745 ], [ 79.28723, 10.91775 ], [ 79.28604, 10.91906 ], [ 79.28562, 10.91954 ], [ 79.28489, 10.92037 ], [ 79.28401, 10.92092 ], [ 79.28341, 10.92128 ], [ 79.28292, 10.92153 ], [ 79.28258, 10.92173 ], [ 79.28179, 10.92215 ], [ 79.2804, 10.92262 ], [ 79.28027, 10.92268 ], [ 79.2793, 10.92308 ], [ 79.27926, 10.92309 ], [ 79.27818, 10.92349 ], [ 79.27811, 10.92438 ], [ 79.2779, 10.92479 ], [ 79.27787, 10.92539 ], [ 79.27787, 10.92565 ], [ 79.27788, 10.92594 ], [ 79.27805, 10.92662 ], [ 79.27823, 10.92694 ], [ 79.27865, 10.9273 ], [ 79.2795, 10.92752 ], [ 79.28026, 10.9277 ], [ 79.28094, 10.92774 ], [ 79.28208, 10.92772 ], [ 79.28279, 10.92766 ], [ 79.28318, 10.92762 ], [ 79.28426, 10.92758 ], [ 79.28476, 10.92762 ], [ 79.28486, 10.92766 ], [ 79.28536, 10.92788 ], [ 79.28596, 10.92842 ], [ 79.28628, 10.92871 ], [ 79.28691, 10.92928 ], [ 79.28721, 10.92965 ], [ 79.28765, 10.9302 ], [ 79.28802, 10.93067 ], [ 79.28875, 10.93151 ], [ 79.28931, 10.93215 ], [ 79.2898, 10.93281 ], [ 79.28985, 10.93287 ], [ 79.29003, 10.93311 ], [ 79.29038, 10.93358 ], [ 79.2908, 10.93415 ], [ 79.29091, 10.93427 ], [ 79.29127, 10.93468 ], [ 79.29157, 10.9349 ], [ 79.29204, 10.93526 ], [ 79.2923, 10.93566 ], [ 79.29251, 10.93593 ], [ 79.29256, 10.93624 ], [ 79.2926, 10.93665 ], [ 79.29256, 10.93674 ], [ 79.29248, 10.93692 ], [ 79.29223, 10.93723 ], [ 79.29245, 10.9372 ], [ 79.29283, 10.93718 ], [ 79.29316, 10.93721 ], [ 79.29347, 10.93734 ], [ 79.29378, 10.93757 ], [ 79.29417, 10.93762 ], [ 79.29485, 10.93755 ], [ 79.29506, 10.93752 ], [ 79.29544, 10.93747 ], [ 79.29627, 10.93745 ], [ 79.29669, 10.93746 ], [ 79.29703, 10.93751 ], [ 79.29729, 10.93759 ], [ 79.29739, 10.9379 ], [ 79.2975, 10.9382 ], [ 79.29768, 10.93836 ], [ 79.29801, 10.93835 ], [ 79.29833, 10.9382 ], [ 79.29875, 10.93776 ], [ 79.29887, 10.93762 ], [ 79.29915, 10.93729 ], [ 79.29964, 10.93681 ], [ 79.30004, 10.93637 ], [ 79.30028, 10.93608 ], [ 79.3006, 10.9358 ], [ 79.3007, 10.93573 ], [ 79.30089, 10.93562 ], [ 79.30122, 10.93552 ], [ 79.30158, 10.93553 ], [ 79.30189, 10.9356 ], [ 79.30226, 10.93575 ], [ 79.30231, 10.93578 ], [ 79.30259, 10.93594 ], [ 79.30298, 10.93608 ], [ 79.30336, 10.93578 ], [ 79.30374, 10.93574 ], [ 79.30408, 10.9356 ], [ 79.3044, 10.93544 ], [ 79.30494, 10.93508 ], [ 79.30531, 10.93472 ], [ 79.30596, 10.9342 ], [ 79.30701, 10.93326 ], [ 79.30925, 10.93247 ], [ 79.30969, 10.93218 ], [ 79.30996, 10.93188 ], [ 79.31006, 10.93177 ], [ 79.31036, 10.93148 ], [ 79.31062, 10.93116 ], [ 79.31068, 10.93108 ], [ 79.31094, 10.93077 ], [ 79.31121, 10.9306 ], [ 79.31158, 10.93057 ], [ 79.31199, 10.93059 ], [ 79.31221, 10.93058 ], [ 79.31259, 10.93054 ], [ 79.31303, 10.93038 ], [ 79.31342, 10.93014 ], [ 79.31376, 10.92969 ], [ 79.31413, 10.92929 ], [ 79.31428, 10.92883 ], [ 79.3144, 10.92844 ], [ 79.31452, 10.92861 ], [ 79.31477, 10.92888 ], [ 79.3151, 10.92901 ], [ 79.31547, 10.92915 ], [ 79.31559, 10.92927 ], [ 79.31564, 10.92931 ], [ 79.31573, 10.92954 ], [ 79.31582, 10.92971 ], [ 79.31587, 10.92982 ], [ 79.31591, 10.92988 ], [ 79.31604, 10.93005 ], [ 79.31647, 10.93022 ], [ 79.3167, 10.93022 ], [ 79.31692, 10.93012 ], [ 79.31715, 10.92992 ], [ 79.31745, 10.92961 ], [ 79.31782, 10.92932 ], [ 79.31853, 10.92902 ], [ 79.31902, 10.92886 ], [ 79.31955, 10.92878 ], [ 79.32003, 10.92868 ], [ 79.32023, 10.92862 ], [ 79.32054, 10.92852 ], [ 79.32116, 10.92833 ], [ 79.32147, 10.92821 ], [ 79.322, 10.92804 ], [ 79.32236, 10.928 ], [ 79.32293, 10.92797 ], [ 79.32327, 10.92796 ], [ 79.32375, 10.92797 ], [ 79.32404, 10.92793 ], [ 79.32431, 10.9278 ], [ 79.32463, 10.92761 ], [ 79.32492, 10.92741 ], [ 79.32567, 10.92701 ], [ 79.32618, 10.92684 ], [ 79.32667, 10.92663 ], [ 79.32672, 10.92661 ], [ 79.32716, 10.92644 ], [ 79.32777, 10.92636 ], [ 79.32834, 10.92634 ], [ 79.3288, 10.92637 ], [ 79.3289, 10.92638 ], [ 79.32944, 10.92642 ], [ 79.3299, 10.92645 ], [ 79.3303, 10.92645 ], [ 79.33101, 10.92646 ], [ 79.33138, 10.92638 ], [ 79.33152, 10.92633 ], [ 79.33179, 10.92622 ], [ 79.33193, 10.92606 ], [ 79.332, 10.92575 ], [ 79.33201, 10.92527 ], [ 79.33205, 10.9248 ], [ 79.33237, 10.92437 ], [ 79.33272, 10.92386 ], [ 79.33332, 10.92332 ], [ 79.33349, 10.92317 ], [ 79.33395, 10.92275 ], [ 79.33406, 10.92268 ], [ 79.33449, 10.92242 ], [ 79.33514, 10.92217 ], [ 79.33578, 10.92192 ], [ 79.33617, 10.92186 ], [ 79.33631, 10.92171 ], [ 79.33628, 10.92152 ], [ 79.33609, 10.92125 ], [ 79.33588, 10.92101 ], [ 79.33537, 10.9205 ], [ 79.33509, 10.92027 ], [ 79.33479, 10.92001 ], [ 79.33474, 10.91997 ], [ 79.33453, 10.91982 ], [ 79.33429, 10.91961 ], [ 79.33402, 10.91937 ], [ 79.33384, 10.91921 ], [ 79.33371, 10.91898 ], [ 79.3336, 10.91865 ], [ 79.33364, 10.91845 ], [ 79.33379, 10.91821 ], [ 79.33386, 10.91805 ], [ 79.33387, 10.91787 ], [ 79.33377, 10.91757 ], [ 79.33373, 10.9173 ], [ 79.33382, 10.91707 ], [ 79.33394, 10.91692 ], [ 79.33435, 10.91655 ], [ 79.33469, 10.91628 ], [ 79.33532, 10.91574 ], [ 79.33585, 10.91537 ], [ 79.33628, 10.91513 ], [ 79.33662, 10.91492 ], [ 79.33711, 10.91453 ], [ 79.33733, 10.9143 ], [ 79.33762, 10.91397 ], [ 79.33778, 10.91364 ], [ 79.33781, 10.91325 ], [ 79.33789, 10.91285 ], [ 79.33801, 10.91267 ], [ 79.33816, 10.91265 ], [ 79.33832, 10.91265 ], [ 79.33869, 10.91271 ], [ 79.33891, 10.91283 ], [ 79.33931, 10.91307 ], [ 79.33964, 10.91331 ], [ 79.33984, 10.91359 ], [ 79.34002, 10.91382 ], [ 79.3402, 10.91397 ], [ 79.34048, 10.91404 ], [ 79.34077, 10.91396 ], [ 79.34099, 10.91374 ], [ 79.34133, 10.91345 ], [ 79.34179, 10.913 ], [ 79.34237, 10.91242 ], [ 79.34276, 10.9118 ], [ 79.34286, 10.91165 ], [ 79.34313, 10.91143 ], [ 79.34349, 10.91129 ], [ 79.34367, 10.91122 ], [ 79.34374, 10.9112 ], [ 79.3441, 10.9111 ], [ 79.34465, 10.91105 ], [ 79.34499, 10.91113 ], [ 79.34516, 10.9112 ], [ 79.34525, 10.91123 ], [ 79.34554, 10.91126 ], [ 79.34593, 10.91128 ], [ 79.34615, 10.91135 ], [ 79.3465, 10.91143 ], [ 79.34684, 10.91152 ], [ 79.34722, 10.91159 ], [ 79.34754, 10.91158 ], [ 79.34798, 10.91147 ], [ 79.34845, 10.91142 ], [ 79.3487, 10.91142 ], [ 79.34889, 10.91145 ], [ 79.34908, 10.91151 ], [ 79.34927, 10.91169 ], [ 79.34951, 10.91171 ], [ 79.34998, 10.91156 ], [ 79.35039, 10.91131 ], [ 79.3512, 10.91077 ], [ 79.35202, 10.91024 ], [ 79.35261, 10.91006 ], [ 79.35312, 10.90982 ], [ 79.35348, 10.90961 ], [ 79.35354, 10.90941 ], [ 79.35339, 10.90915 ], [ 79.35317, 10.90889 ], [ 79.35295, 10.90864 ], [ 79.35293, 10.90825 ], [ 79.35301, 10.90795 ], [ 79.35325, 10.90773 ], [ 79.35366, 10.9076 ], [ 79.35404, 10.90752 ], [ 79.35435, 10.90737 ], [ 79.35476, 10.90711 ], [ 79.35513, 10.90674 ], [ 79.35561, 10.9062 ], [ 79.35633, 10.90563 ], [ 79.35686, 10.90504 ], [ 79.35688, 10.90475 ], [ 79.35689, 10.90441 ], [ 79.35694, 10.90406 ], [ 79.35709, 10.90382 ], [ 79.35783, 10.90313 ], [ 79.35833, 10.90266 ], [ 79.35836, 10.90263 ], [ 79.35871, 10.9023 ], [ 79.3595, 10.90156 ], [ 79.36039, 10.90085 ], [ 79.36111, 10.9001 ], [ 79.36193, 10.89946 ], [ 79.36221, 10.89936 ], [ 79.36261, 10.89896 ], [ 79.36326, 10.89828 ], [ 79.36391, 10.89761 ], [ 79.36427, 10.8973 ], [ 79.3644, 10.89731 ], [ 79.36449, 10.89732 ], [ 79.36472, 10.89753 ], [ 79.36496, 10.89777 ], [ 79.3653, 10.89813 ], [ 79.36568, 10.8983 ], [ 79.36612, 10.8984 ], [ 79.36621, 10.89842 ], [ 79.36676, 10.89846 ], [ 79.36764, 10.89833 ], [ 79.36773, 10.89831 ], [ 79.36853, 10.89818 ], [ 79.36924, 10.8981 ], [ 79.36976, 10.89797 ], [ 79.37027, 10.89792 ], [ 79.37046, 10.89781 ], [ 79.37056, 10.89769 ], [ 79.37061, 10.89742 ], [ 79.37062, 10.89717 ], [ 79.37062, 10.89708 ], [ 79.37061, 10.89649 ], [ 79.37061, 10.89646 ], [ 79.37059, 10.896 ], [ 79.37064, 10.89553 ], [ 79.37078, 10.89519 ], [ 79.37116, 10.89505 ], [ 79.37151, 10.89503 ], [ 79.37174, 10.89494 ], [ 79.37184, 10.89481 ], [ 79.37194, 10.89455 ], [ 79.37201, 10.89427 ], [ 79.37209, 10.89406 ], [ 79.3721, 10.89403 ], [ 79.37225, 10.89385 ], [ 79.3724, 10.89354 ], [ 79.37242, 10.8932 ], [ 79.3724, 10.89288 ], [ 79.37235, 10.89263 ], [ 79.37233, 10.8924 ], [ 79.37242, 10.89216 ], [ 79.37273, 10.8919 ], [ 79.37312, 10.89171 ], [ 79.37343, 10.89154 ], [ 79.37381, 10.89145 ], [ 79.37412, 10.89144 ], [ 79.3744, 10.89152 ], [ 79.37512, 10.89165 ], [ 79.37545, 10.89169 ], [ 79.37571, 10.8917 ], [ 79.37581, 10.89169 ], [ 79.37597, 10.89167 ], [ 79.37616, 10.89156 ], [ 79.37628, 10.89141 ], [ 79.37641, 10.89124 ], [ 79.3766, 10.89102 ], [ 79.37693, 10.89088 ], [ 79.37719, 10.89085 ], [ 79.37764, 10.89096 ], [ 79.3779, 10.89111 ], [ 79.37801, 10.89119 ], [ 79.37811, 10.89126 ], [ 79.3784, 10.89147 ], [ 79.37871, 10.89172 ], [ 79.37902, 10.89196 ], [ 79.37928, 10.89209 ], [ 79.37942, 10.89212 ], [ 79.37958, 10.89215 ], [ 79.37995, 10.89212 ], [ 79.38047, 10.89201 ], [ 79.3809, 10.8919 ], [ 79.38136, 10.89174 ], [ 79.38166, 10.89161 ], [ 79.38183, 10.89147 ], [ 79.38186, 10.89144 ], [ 79.38197, 10.89132 ], [ 79.38216, 10.89105 ], [ 79.38233, 10.89099 ], [ 79.38254, 10.89105 ], [ 79.38274, 10.89122 ], [ 79.38288, 10.89141 ], [ 79.383, 10.89162 ], [ 79.38316, 10.89179 ], [ 79.38325, 10.89182 ], [ 79.38347, 10.89191 ], [ 79.38365, 10.89201 ], [ 79.3838, 10.89225 ], [ 79.38392, 10.89253 ], [ 79.38408, 10.89281 ], [ 79.38432, 10.89309 ], [ 79.38448, 10.89319 ], [ 79.3846, 10.89327 ], [ 79.38494, 10.89349 ], [ 79.38532, 10.89362 ], [ 79.38572, 10.89362 ], [ 79.38603, 10.89359 ], [ 79.38641, 10.89347 ], [ 79.38679, 10.89331 ], [ 79.38728, 10.89307 ], [ 79.38769, 10.89297 ], [ 79.38814, 10.89293 ], [ 79.38888, 10.89304 ], [ 79.3895, 10.89314 ], [ 79.38964, 10.89319 ], [ 79.3899, 10.89327 ], [ 79.39039, 10.89337 ], [ 79.39044, 10.89337 ], [ 79.39079, 10.89339 ], [ 79.3911, 10.89338 ], [ 79.39158, 10.8933 ], [ 79.392, 10.89323 ], [ 79.39269, 10.89313 ], [ 79.39307, 10.8931 ], [ 79.39344, 10.8931 ], [ 79.39359, 10.89324 ], [ 79.3937, 10.89348 ], [ 79.3938, 10.89378 ], [ 79.39406, 10.89419 ], [ 79.39409, 10.89427 ], [ 79.39405, 10.89441 ], [ 79.39414, 10.89458 ], [ 79.39418, 10.89464 ], [ 79.39444, 10.89471 ], [ 79.39479, 10.89467 ], [ 79.39488, 10.89463 ], [ 79.39526, 10.89455 ], [ 79.3957, 10.89438 ], [ 79.39552, 10.89426 ], [ 79.39538, 10.89388 ], [ 79.39555, 10.89347 ], [ 79.39564, 10.89334 ], [ 79.39578, 10.8931 ], [ 79.39621, 10.893 ], [ 79.39656, 10.89291 ], [ 79.39722, 10.89279 ], [ 79.39775, 10.89268 ], [ 79.39829, 10.89242 ], [ 79.39837, 10.89237 ], [ 79.39866, 10.89219 ], [ 79.39892, 10.89179 ], [ 79.39916, 10.89149 ], [ 79.39946, 10.89101 ], [ 79.39981, 10.89083 ], [ 79.40042, 10.89066 ], [ 79.40132, 10.89051 ], [ 79.40204, 10.8903 ], [ 79.40246, 10.89014 ], [ 79.40281, 10.88996 ], [ 79.40296, 10.88986 ], [ 79.40336, 10.8896 ], [ 79.40346, 10.88959 ], [ 79.40364, 10.88958 ], [ 79.40379, 10.88965 ], [ 79.40384, 10.88968 ], [ 79.40393, 10.88979 ], [ 79.40412, 10.88985 ], [ 79.40435, 10.88982 ], [ 79.40461, 10.8897 ], [ 79.40526, 10.88948 ], [ 79.4058, 10.88933 ], [ 79.40638, 10.88918 ], [ 79.40695, 10.88904 ], [ 79.40739, 10.88893 ], [ 79.40772, 10.88875 ], [ 79.40785, 10.88859 ], [ 79.40795, 10.88819 ], [ 79.40804, 10.88772 ], [ 79.40818, 10.88735 ], [ 79.40836, 10.88707 ], [ 79.40847, 10.88694 ], [ 79.40866, 10.88673 ], [ 79.40911, 10.88646 ], [ 79.40948, 10.88619 ], [ 79.40988, 10.88591 ], [ 79.41034, 10.88565 ], [ 79.41067, 10.88538 ], [ 79.41092, 10.88515 ], [ 79.4111, 10.88495 ], [ 79.41117, 10.88471 ], [ 79.41127, 10.88453 ], [ 79.41139, 10.88432 ], [ 79.41165, 10.88407 ], [ 79.4123, 10.88374 ], [ 79.41297, 10.8834 ], [ 79.41387, 10.88284 ], [ 79.41471, 10.88242 ], [ 79.41542, 10.88195 ], [ 79.41603, 10.88156 ], [ 79.41687, 10.88111 ], [ 79.41699, 10.88104 ], [ 79.4175, 10.88074 ], [ 79.41789, 10.88048 ], [ 79.4183, 10.88025 ], [ 79.41867, 10.88017 ], [ 79.419, 10.88021 ], [ 79.41937, 10.88027 ], [ 79.41966, 10.88029 ], [ 79.41987, 10.88019 ], [ 79.42006, 10.87991 ], [ 79.4204, 10.87957 ], [ 79.42079, 10.8794 ], [ 79.42173, 10.87903 ], [ 79.42269, 10.87873 ], [ 79.42301, 10.87863 ], [ 79.42402, 10.87836 ], [ 79.42504, 10.87795 ], [ 79.42592, 10.87751 ], [ 79.42656, 10.87708 ], [ 79.42724, 10.87675 ], [ 79.42786, 10.87645 ], [ 79.4284, 10.87613 ], [ 79.42881, 10.87595 ], [ 79.42929, 10.87578 ], [ 79.4301, 10.87561 ], [ 79.43084, 10.87535 ], [ 79.4311, 10.87524 ], [ 79.43165, 10.87498 ], [ 79.43221, 10.87461 ], [ 79.43257, 10.87441 ], [ 79.43302, 10.87426 ], [ 79.43361, 10.87394 ], [ 79.43423, 10.87358 ], [ 79.43426, 10.87356 ], [ 79.4347, 10.87322 ], [ 79.43522, 10.87281 ], [ 79.43569, 10.87242 ], [ 79.43593, 10.87198 ], [ 79.43609, 10.87164 ], [ 79.43613, 10.87127 ], [ 79.43611, 10.87111 ], [ 79.43622, 10.8709 ], [ 79.43641, 10.87075 ], [ 79.43682, 10.87052 ], [ 79.4376, 10.87015 ], [ 79.43811, 10.86986 ], [ 79.43866, 10.86946 ], [ 79.439, 10.86929 ], [ 79.43926, 10.86924 ], [ 79.43948, 10.86927 ], [ 79.43977, 10.86942 ], [ 79.44013, 10.86956 ], [ 79.4404, 10.86957 ], [ 79.44082, 10.86953 ], [ 79.44118, 10.86945 ], [ 79.44162, 10.86946 ], [ 79.44185, 10.86952 ], [ 79.44229, 10.86952 ], [ 79.44273, 10.86948 ], [ 79.44304, 10.86948 ], [ 79.44331, 10.86955 ], [ 79.44369, 10.86976 ], [ 79.44407, 10.86983 ], [ 79.4445, 10.86962 ], [ 79.44461, 10.86962 ], [ 79.44524, 10.8694 ], [ 79.44584, 10.86915 ], [ 79.44651, 10.8687 ], [ 79.44657, 10.86866 ], [ 79.44723, 10.86821 ], [ 79.44803, 10.86753 ], [ 79.44896, 10.86689 ], [ 79.44959, 10.86645 ], [ 79.45002, 10.8662 ], [ 79.45055, 10.86575 ], [ 79.45062, 10.86569 ], [ 79.45087, 10.86548 ], [ 79.45124, 10.86513 ], [ 79.45162, 10.86459 ], [ 79.45195, 10.8641 ], [ 79.45244, 10.86358 ], [ 79.45309, 10.86281 ], [ 79.45352, 10.86231 ], [ 79.45382, 10.86179 ], [ 79.45419, 10.86122 ], [ 79.45456, 10.86088 ], [ 79.4547, 10.86076 ], [ 79.45481, 10.86089 ], [ 79.45636, 10.86265 ], [ 79.45645, 10.86276 ], [ 79.45677, 10.86313 ], [ 79.45796, 10.86448 ], [ 79.45936, 10.86607 ], [ 79.45989, 10.86588 ], [ 79.46183, 10.86539 ], [ 79.46306, 10.86472 ], [ 79.46516, 10.86396 ], [ 79.4674, 10.86315 ], [ 79.46764, 10.86392 ], [ 79.46776, 10.86429 ], [ 79.46789, 10.8647 ], [ 79.46797, 10.86497 ], [ 79.46809, 10.86535 ], [ 79.46882, 10.86765 ], [ 79.46922, 10.8683 ], [ 79.47145, 10.87195 ], [ 79.47229, 10.87159 ], [ 79.47337, 10.87098 ], [ 79.4746, 10.87028 ], [ 79.47909, 10.86936 ], [ 79.48017, 10.86913 ], [ 79.48132, 10.86887 ], [ 79.48171, 10.86909 ], [ 79.482, 10.86925 ], [ 79.48275, 10.86966 ], [ 79.48614, 10.87153 ], [ 79.48675, 10.87187 ], [ 79.48705, 10.87203 ], [ 79.48718, 10.87211 ], [ 79.48518, 10.87653 ], [ 79.48462, 10.87776 ], [ 79.48822, 10.88289 ], [ 79.48892, 10.88389 ], [ 79.48901, 10.884 ], [ 79.48905, 10.88406 ], [ 79.48936, 10.88446 ], [ 79.4922, 10.8882 ], [ 79.49233, 10.88834 ], [ 79.4925, 10.88839 ], [ 79.49369, 10.88872 ], [ 79.49421, 10.88886 ], [ 79.49457, 10.88896 ], [ 79.4961, 10.88938 ], [ 79.49624, 10.88942 ], [ 79.49734, 10.88972 ], [ 79.49843, 10.8904 ], [ 79.4988, 10.89063 ], [ 79.49957, 10.89111 ], [ 79.5012, 10.89212 ], [ 79.50141, 10.89223 ], [ 79.50145, 10.89225 ], [ 79.5016, 10.89236 ], [ 79.5022, 10.89279 ], [ 79.50246, 10.89297 ], [ 79.50256, 10.89303 ], [ 79.50777, 10.89628 ], [ 79.50812, 10.89649 ], [ 79.50836, 10.89665 ], [ 79.50837, 10.89808 ], [ 79.50837, 10.89853 ], [ 79.50837, 10.89981 ], [ 79.50838, 10.90244 ], [ 79.50613, 10.90328 ], [ 79.50427, 10.90398 ], [ 79.50134, 10.90507 ], [ 79.49685, 10.90466 ], [ 79.49519, 10.9045 ], [ 79.49482, 10.90478 ], [ 79.49458, 10.90789 ], [ 79.4947, 10.9092 ], [ 79.49408, 10.91101 ], [ 79.49387, 10.91163 ], [ 79.49371, 10.91195 ], [ 79.49248, 10.91538 ], [ 79.49134, 10.91855 ], [ 79.49096, 10.9186 ], [ 79.48712, 10.91906 ], [ 79.48614, 10.91929 ], [ 79.48695, 10.92084 ], [ 79.48812, 10.92229 ], [ 79.48843, 10.92263 ], [ 79.48877, 10.92309 ], [ 79.48916, 10.92342 ], [ 79.48948, 10.92365 ], [ 79.48992, 10.92411 ], [ 79.49074, 10.92476 ], [ 79.49469, 10.92786 ], [ 79.49504, 10.92827 ], [ 79.49539, 10.92858 ], [ 79.49659, 10.92938 ], [ 79.49685, 10.9296 ], [ 79.49719, 10.93 ], [ 79.49762, 10.93039 ], [ 79.49805, 10.9308 ], [ 79.49837, 10.93106 ], [ 79.49896, 10.93146 ], [ 79.49981, 10.93193 ], [ 79.49983, 10.93233 ], [ 79.49984, 10.93299 ], [ 79.49993, 10.93656 ], [ 79.49995, 10.93677 ], [ 79.49999, 10.93851 ], [ 79.50119, 10.93863 ], [ 79.50382, 10.93888 ], [ 79.50771, 10.93926 ], [ 79.50837, 10.93932 ], [ 79.51606, 10.94006 ], [ 79.51832, 10.94376 ], [ 79.51885, 10.94462 ], [ 79.51912, 10.94505 ], [ 79.5178, 10.94826 ], [ 79.5157, 10.95338 ], [ 79.51584, 10.96655 ], [ 79.51584, 10.96662 ], [ 79.51583, 10.96697 ], [ 79.51563, 10.96893 ], [ 79.51531, 10.96956 ], [ 79.51531, 10.96975 ], [ 79.51531, 10.97014 ], [ 79.51531, 10.97236 ], [ 79.51538, 10.97401 ], [ 79.51546, 10.97964 ], [ 79.51468, 10.98041 ], [ 79.51269, 10.9824 ], [ 79.51133, 10.98375 ], [ 79.5107, 10.98438 ], [ 79.51061, 10.98447 ], [ 79.51279, 10.98754 ], [ 79.51637, 10.98759 ], [ 79.51649, 10.9876 ], [ 79.51686, 10.9876 ], [ 79.51728, 10.98761 ], [ 79.51925, 10.98764 ], [ 79.51957, 10.98764 ], [ 79.52025, 10.98765 ], [ 79.52397, 10.99216 ], [ 79.5238, 10.99375 ], [ 79.52354, 10.99617 ], [ 79.52348, 10.99626 ], [ 79.52345, 10.99674 ], [ 79.52344, 10.99692 ], [ 79.52341, 10.99734 ], [ 79.5234, 10.99747 ], [ 79.52357, 10.9974 ], [ 79.52436, 10.99706 ], [ 79.52493, 10.99681 ], [ 79.5261, 10.99631 ], [ 79.52694, 10.99639 ], [ 79.52692, 10.99696 ], [ 79.52691, 10.99733 ], [ 79.5269, 10.9976 ], [ 79.52689, 10.99773 ], [ 79.52688, 10.99804 ], [ 79.52687, 10.99835 ], [ 79.52686, 10.99865 ], [ 79.52704, 10.99864 ], [ 79.5272, 10.99864 ], [ 79.53014, 10.99857 ], [ 79.53029, 10.9979 ], [ 79.53035, 10.99762 ], [ 79.53043, 10.99728 ], [ 79.53047, 10.99709 ], [ 79.53114, 10.99675 ], [ 79.53188, 10.99636 ], [ 79.5342, 10.99665 ], [ 79.53441, 10.99668 ], [ 79.53484, 10.99673 ], [ 79.53679, 10.99696 ], [ 79.53854, 10.99717 ], [ 79.53991, 10.99733 ], [ 79.54201, 10.99758 ], [ 79.54233, 10.99762 ], [ 79.54279, 10.99754 ], [ 79.54284, 10.99753 ], [ 79.54511, 10.99797 ], [ 79.54749, 10.99897 ], [ 79.54794, 10.99952 ], [ 79.54805, 10.99965 ], [ 79.54817, 10.99983 ], [ 79.54829, 11.00006 ], [ 79.54871, 11.00086 ], [ 79.54915, 11.00169 ], [ 79.54763, 11.00418 ], [ 79.54707, 11.0051 ], [ 79.54651, 11.00603 ], [ 79.54631, 11.00635 ], [ 79.54583, 11.00654 ], [ 79.54221, 11.00796 ], [ 79.54145, 11.00816 ], [ 79.54115, 11.00825 ], [ 79.53975, 11.00863 ], [ 79.53565, 11.00974 ], [ 79.53514, 11.00963 ], [ 79.53073, 11.0087 ], [ 79.53037, 11.00862 ], [ 79.52838, 11.0082 ], [ 79.52789, 11.00809 ], [ 79.52746, 11.008 ], [ 79.52749, 11.00885 ], [ 79.5275, 11.00925 ], [ 79.52756, 11.01133 ], [ 79.52759, 11.01247 ], [ 79.52759, 11.01265 ], [ 79.5276, 11.0129 ], [ 79.52763, 11.01385 ], [ 79.52851, 11.01413 ], [ 79.52888, 11.01425 ], [ 79.53044, 11.01476 ], [ 79.5314, 11.01412 ], [ 79.53276, 11.01322 ], [ 79.53355, 11.0127 ], [ 79.53538, 11.01295 ], [ 79.53603, 11.01302 ], [ 79.5378, 11.01329 ], [ 79.53723, 11.01436 ], [ 79.53617, 11.01666 ], [ 79.53572, 11.01989 ], [ 79.53571, 11.02 ], [ 79.53561, 11.02066 ], [ 79.53551, 11.02139 ], [ 79.53541, 11.02213 ], [ 79.53537, 11.0224 ], [ 79.53516, 11.02392 ], [ 79.53492, 11.02564 ], [ 79.53487, 11.02601 ], [ 79.53417, 11.02597 ], [ 79.53319, 11.02591 ], [ 79.5326, 11.02587 ], [ 79.53072, 11.02575 ], [ 79.52868, 11.02563 ], [ 79.52722, 11.02573 ], [ 79.52659, 11.02577 ], [ 79.52544, 11.02585 ], [ 79.52507, 11.02587 ], [ 79.5237, 11.02596 ], [ 79.52313, 11.026 ], [ 79.52308, 11.026 ], [ 79.52231, 11.02605 ], [ 79.52114, 11.02613 ], [ 79.51966, 11.02623 ], [ 79.51928, 11.02671 ], [ 79.51925, 11.02684 ], [ 79.51811, 11.03226 ], [ 79.51759, 11.03426 ], [ 79.51755, 11.03442 ], [ 79.51672, 11.03759 ], [ 79.5167, 11.03768 ], [ 79.51661, 11.03802 ], [ 79.51643, 11.03872 ], [ 79.5164, 11.03884 ], [ 79.51596, 11.04056 ], [ 79.51588, 11.0409 ], [ 79.51579, 11.04124 ], [ 79.51678, 11.04253 ], [ 79.51803, 11.04416 ], [ 79.51883, 11.0452 ], [ 79.51937, 11.04591 ], [ 79.51958, 11.04618 ], [ 79.51974, 11.04639 ], [ 79.52105, 11.04809 ], [ 79.52118, 11.04837 ], [ 79.52157, 11.04921 ], [ 79.52249, 11.05116 ], [ 79.52336, 11.05156 ], [ 79.52367, 11.0517 ], [ 79.52382, 11.05177 ], [ 79.52399, 11.05185 ], [ 79.52461, 11.05223 ], [ 79.52496, 11.0528 ], [ 79.52545, 11.0529 ], [ 79.52564, 11.05293 ], [ 79.52594, 11.05299 ], [ 79.52626, 11.05309 ], [ 79.52651, 11.05321 ], [ 79.52697, 11.05316 ], [ 79.52895, 11.05414 ], [ 79.52994, 11.05519 ], [ 79.53054, 11.05584 ], [ 79.53104, 11.05637 ], [ 79.53158, 11.05694 ], [ 79.53278, 11.05932 ], [ 79.53298, 11.05972 ], [ 79.53316, 11.06009 ], [ 79.53321, 11.06019 ], [ 79.53474, 11.0613 ], [ 79.5356, 11.06192 ], [ 79.53584, 11.06227 ], [ 79.53619, 11.06255 ], [ 79.53618, 11.06264 ], [ 79.53633, 11.0629 ], [ 79.5364, 11.06321 ], [ 79.53646, 11.06343 ], [ 79.53737, 11.06742 ], [ 79.53748, 11.06791 ], [ 79.53755, 11.0682 ], [ 79.54039, 11.07036 ], [ 79.54086, 11.07072 ], [ 79.54135, 11.0711 ], [ 79.54202, 11.07161 ], [ 79.5428, 11.0722 ], [ 79.5433, 11.07258 ], [ 79.54408, 11.07317 ], [ 79.54425, 11.07403 ], [ 79.54489, 11.07462 ], [ 79.5467, 11.07632 ], [ 79.55103, 11.0794 ], [ 79.55106, 11.07945 ], [ 79.55195, 11.0809 ], [ 79.55171, 11.08118 ], [ 79.55139, 11.08154 ], [ 79.55118, 11.08178 ], [ 79.55067, 11.08237 ], [ 79.54939, 11.08384 ], [ 79.54913, 11.08414 ], [ 79.54824, 11.08515 ], [ 79.54658, 11.0858 ], [ 79.5455, 11.08622 ], [ 79.54418, 11.08522 ], [ 79.54287, 11.08423 ], [ 79.5426, 11.08521 ], [ 79.54246, 11.08574 ], [ 79.54215, 11.08687 ], [ 79.54204, 11.08729 ], [ 79.5424, 11.08801 ], [ 79.5427, 11.08862 ], [ 79.54362, 11.09046 ], [ 79.54429, 11.0918 ], [ 79.54603, 11.0953 ], [ 79.54683, 11.09689 ], [ 79.54706, 11.09735 ], [ 79.54735, 11.09793 ], [ 79.5477, 11.09864 ], [ 79.54853, 11.10029 ], [ 79.54861, 11.10045 ], [ 79.54877, 11.10077 ], [ 79.54883, 11.10089 ], [ 79.54887, 11.10134 ], [ 79.54896, 11.10249 ], [ 79.54902, 11.10331 ], [ 79.54909, 11.10413 ], [ 79.54581, 11.10404 ], [ 79.54346, 11.10397 ], [ 79.54235, 11.10393 ], [ 79.54191, 11.09817 ], [ 79.54265, 11.09503 ], [ 79.54091, 11.09496 ], [ 79.54028, 11.09493 ], [ 79.54022, 11.09506 ], [ 79.53907, 11.09767 ], [ 79.53781, 11.1005 ], [ 79.53807, 11.10329 ], [ 79.54016, 11.10581 ], [ 79.54019, 11.10726 ], [ 79.54026, 11.10804 ], [ 79.5403, 11.10852 ], [ 79.54033, 11.10887 ], [ 79.54069, 11.10883 ], [ 79.54135, 11.10877 ], [ 79.54662, 11.10826 ], [ 79.54741, 11.10872 ], [ 79.5488, 11.10953 ], [ 79.54925, 11.11169 ], [ 79.5476, 11.11236 ], [ 79.54668, 11.11281 ], [ 79.54639, 11.11295 ], [ 79.54718, 11.11396 ], [ 79.54769, 11.11501 ], [ 79.54822, 11.1151 ], [ 79.5483, 11.11511 ], [ 79.54859, 11.1152 ], [ 79.54917, 11.11528 ], [ 79.55115, 11.11557 ], [ 79.55148, 11.11643 ], [ 79.55157, 11.11666 ], [ 79.55179, 11.11723 ], [ 79.55183, 11.11732 ], [ 79.55268, 11.11953 ], [ 79.55182, 11.12106 ], [ 79.55147, 11.12168 ], [ 79.55134, 11.12191 ], [ 79.55074, 11.12297 ], [ 79.5503, 11.12375 ], [ 79.55072, 11.12395 ], [ 79.55347, 11.12524 ], [ 79.55376, 11.12538 ], [ 79.55373, 11.12643 ], [ 79.55372, 11.12663 ], [ 79.55371, 11.12702 ], [ 79.55371, 11.1272 ], [ 79.55365, 11.12898 ], [ 79.55493, 11.13 ], [ 79.55547, 11.13042 ], [ 79.5557, 11.13018 ], [ 79.5564, 11.12943 ], [ 79.55659, 11.12923 ], [ 79.55673, 11.12908 ], [ 79.55748, 11.12827 ], [ 79.56039, 11.13008 ], [ 79.5606, 11.13064 ], [ 79.56126, 11.13244 ], [ 79.5617, 11.13364 ], [ 79.56184, 11.13403 ], [ 79.56218, 11.1349 ], [ 79.56251, 11.13577 ], [ 79.56355, 11.13671 ], [ 79.56361, 11.13676 ], [ 79.56429, 11.13737 ], [ 79.56447, 11.13753 ], [ 79.5655, 11.13844 ], [ 79.56605, 11.13893 ], [ 79.56656, 11.13938 ], [ 79.56735, 11.14008 ], [ 79.56744, 11.14016 ], [ 79.56755, 11.14026 ], [ 79.57355, 11.14558 ], [ 79.57428, 11.14623 ], [ 79.57355, 11.14641 ], [ 79.57308, 11.14652 ], [ 79.57298, 11.14654 ], [ 79.57257, 11.14664 ], [ 79.57069, 11.14708 ], [ 79.56971, 11.14731 ], [ 79.56754, 11.14783 ], [ 79.56712, 11.15103 ], [ 79.56669, 11.1543 ], [ 79.56264, 11.15424 ], [ 79.56195, 11.15423 ], [ 79.5594, 11.15419 ], [ 79.55948, 11.15822 ], [ 79.55954, 11.16113 ], [ 79.55955, 11.16146 ], [ 79.55956, 11.16211 ], [ 79.55852, 11.16198 ], [ 79.55647, 11.16174 ], [ 79.5557, 11.1619 ], [ 79.55344, 11.16238 ], [ 79.55269, 11.16254 ], [ 79.55231, 11.16262 ], [ 79.54928, 11.16116 ], [ 79.54894, 11.16099 ], [ 79.54871, 11.16088 ], [ 79.548, 11.16053 ], [ 79.54741, 11.16024 ], [ 79.54722, 11.16014 ], [ 79.54707, 11.16007 ], [ 79.54587, 11.15949 ], [ 79.54581, 11.15946 ], [ 79.54567, 11.15979 ], [ 79.54544, 11.16033 ], [ 79.54453, 11.16251 ], [ 79.54437, 11.16255 ], [ 79.54338, 11.1628 ], [ 79.54257, 11.163 ], [ 79.54174, 11.1632 ], [ 79.54151, 11.16326 ], [ 79.54133, 11.16331 ], [ 79.54125, 11.16372 ], [ 79.5412, 11.16396 ], [ 79.54095, 11.16524 ], [ 79.54085, 11.16574 ], [ 79.54066, 11.16666 ], [ 79.5406, 11.16697 ], [ 79.54058, 11.16707 ], [ 79.54028, 11.16858 ], [ 79.53992, 11.17039 ], [ 79.53987, 11.17064 ], [ 79.53951, 11.17244 ], [ 79.53907, 11.17461 ], [ 79.53896, 11.17515 ], [ 79.53856, 11.17719 ], [ 79.53828, 11.1786 ], [ 79.53797, 11.17856 ], [ 79.53691, 11.17844 ], [ 79.53132, 11.17779 ], [ 79.53108, 11.17776 ], [ 79.53047, 11.17804 ], [ 79.53025, 11.17814 ], [ 79.52922, 11.17861 ], [ 79.52899, 11.17871 ], [ 79.52846, 11.17936 ], [ 79.52662, 11.18036 ], [ 79.52387, 11.18198 ], [ 79.52556, 11.18321 ], [ 79.52443, 11.18277 ], [ 79.52291, 11.18217 ], [ 79.5214, 11.18159 ], [ 79.51463, 11.17895 ], [ 79.51422, 11.1794 ], [ 79.51374, 11.17938 ], [ 79.5128, 11.17893 ], [ 79.5113, 11.17737 ], [ 79.50889, 11.17712 ], [ 79.50748, 11.17677 ], [ 79.50746, 11.17677 ], [ 79.50618, 11.17645 ], [ 79.5044, 11.17643 ], [ 79.50314, 11.17591 ], [ 79.50293, 11.17586 ], [ 79.50194, 11.17541 ], [ 79.49924, 11.17368 ], [ 79.4988, 11.1734 ], [ 79.49649, 11.17192 ], [ 79.49618, 11.17172 ], [ 79.49257, 11.16941 ], [ 79.49245, 11.16933 ], [ 79.49152, 11.16873 ], [ 79.4906, 11.16814 ], [ 79.48799, 11.16647 ], [ 79.48775, 11.16632 ], [ 79.48678, 11.16539 ], [ 79.48342, 11.1633 ], [ 79.48261, 11.16302 ], [ 79.48187, 11.16273 ], [ 79.48011, 11.16203 ], [ 79.47548, 11.16019 ], [ 79.47314, 11.15926 ], [ 79.46984, 11.15699 ], [ 79.46852, 11.15692 ], [ 79.46512, 11.15549 ], [ 79.46273, 11.15315 ], [ 79.46028, 11.1505 ], [ 79.46004, 11.15034 ], [ 79.45978, 11.15005 ], [ 79.45968, 11.14994 ], [ 79.45954, 11.14978 ], [ 79.45582, 11.14572 ], [ 79.45283, 11.14201 ], [ 79.45252, 11.14141 ], [ 79.45202, 11.14125 ], [ 79.45129, 11.14061 ], [ 79.45026, 11.13964 ], [ 79.448, 11.13717 ], [ 79.44688, 11.1361 ], [ 79.4466, 11.13583 ], [ 79.44653, 11.13565 ], [ 79.44588, 11.13485 ], [ 79.4453, 11.13422 ], [ 79.44495, 11.13383 ], [ 79.44172, 11.13029 ], [ 79.44119, 11.12972 ], [ 79.43995, 11.12836 ], [ 79.43908, 11.12741 ], [ 79.43852, 11.1267 ], [ 79.43483, 11.12201 ], [ 79.43192, 11.1183 ], [ 79.42951, 11.11304 ], [ 79.42937, 11.11273 ], [ 79.42835, 11.11051 ], [ 79.42647, 11.10641 ], [ 79.42841, 11.10307 ], [ 79.42559, 11.10137 ], [ 79.42789, 11.09855 ], [ 79.42778, 11.09785 ], [ 79.4277, 11.09758 ], [ 79.42744, 11.09714 ], [ 79.42375, 11.09725 ], [ 79.42345, 11.09657 ], [ 79.42287, 11.09527 ], [ 79.42383, 11.09381 ], [ 79.4231, 11.09297 ], [ 79.42268, 11.09268 ], [ 79.42091, 11.0917 ], [ 79.42042, 11.09149 ], [ 79.42013, 11.09122 ], [ 79.41916, 11.08996 ], [ 79.4186, 11.08929 ], [ 79.41821, 11.08869 ], [ 79.41765, 11.08759 ], [ 79.41715, 11.08651 ], [ 79.41687, 11.08604 ], [ 79.41378, 11.08096 ], [ 79.41052, 11.07725 ], [ 79.41014, 11.07682 ], [ 79.40798, 11.07437 ], [ 79.4057, 11.0724 ], [ 79.39546, 11.06353 ], [ 79.3952, 11.0633 ], [ 79.39243, 11.06195 ], [ 79.3923, 11.0619 ], [ 79.385, 11.05834 ], [ 79.38437, 11.05804 ], [ 79.37756, 11.05473 ], [ 79.37721, 11.05456 ], [ 79.37622, 11.05424 ], [ 79.37427, 11.05361 ], [ 79.37422, 11.05359 ], [ 79.37273, 11.0531 ], [ 79.36938, 11.05189 ], [ 79.36475, 11.05051 ], [ 79.36393, 11.05024 ], [ 79.36323, 11.05001 ], [ 79.36269, 11.04974 ], [ 79.36203, 11.04941 ], [ 79.36069, 11.04874 ], [ 79.35988, 11.04834 ], [ 79.35853, 11.04766 ], [ 79.3578, 11.0473 ], [ 79.35341, 11.04363 ], [ 79.35103, 11.04224 ], [ 79.34618, 11.0394 ], [ 79.34465, 11.0385 ], [ 79.34376, 11.03781 ], [ 79.34268, 11.03697 ], [ 79.34055, 11.0353 ], [ 79.33881, 11.03307 ], [ 79.33614, 11.02964 ], [ 79.33362, 11.02821 ], [ 79.33229, 11.02746 ], [ 79.33081, 11.02662 ], [ 79.32858, 11.02535 ], [ 79.32813, 11.02509 ], [ 79.32765, 11.02482 ], [ 79.32579, 11.02376 ], [ 79.32286, 11.0221 ], [ 79.32104, 11.02086 ], [ 79.31839, 11.01906 ], [ 79.31763, 11.01854 ], [ 79.31605, 11.01746 ], [ 79.31386, 11.01597 ], [ 79.31233, 11.01812 ], [ 79.31126, 11.01848 ], [ 79.30945, 11.01908 ], [ 79.30602, 11.01749 ], [ 79.30244, 11.01579 ], [ 79.30201, 11.01564 ], [ 79.3019, 11.01557 ], [ 79.30156, 11.01538 ], [ 79.2996, 11.01548 ], [ 79.29769, 11.01554 ], [ 79.29729, 11.01543 ], [ 79.29667, 11.01526 ], [ 79.29514, 11.01484 ], [ 79.29174, 11.01187 ], [ 79.28519, 11.00614 ], [ 79.28472, 11.0033 ], [ 79.28444, 11.00163 ], [ 79.28065, 10.99818 ], [ 79.2753, 10.9899 ], [ 79.27303, 10.98751 ], [ 79.26838, 10.98353 ], [ 79.2672, 10.98251 ], [ 79.26567, 10.98125 ], [ 79.26347, 10.97943 ], [ 79.25992, 10.97649 ], [ 79.25162, 10.96994 ], [ 79.25138, 10.96976 ], [ 79.24936, 10.96817 ], [ 79.24888, 10.96779 ], [ 79.24764, 10.96696 ], [ 79.24688, 10.96645 ], [ 79.24452, 10.96488 ], [ 79.24395, 10.9645 ], [ 79.24254, 10.96355 ], [ 79.24224, 10.96335 ], [ 79.24214, 10.96329 ], [ 79.24123, 10.96268 ], [ 79.2395, 10.96153 ], [ 79.2383, 10.95941 ], [ 79.23533, 10.95695 ], [ 79.23048, 10.9515 ], [ 79.22693, 10.94827 ], [ 79.22592, 10.94815 ], [ 79.22551, 10.94792 ], [ 79.22506, 10.94762 ], [ 79.22463, 10.94734 ], [ 79.22149, 10.94623 ], [ 79.22064, 10.94582 ], [ 79.22136, 10.94449 ], [ 79.22169, 10.94387 ], [ 79.21722, 10.94135 ], [ 79.21429, 10.9397 ], [ 79.21033, 10.93897 ], [ 79.20864, 10.93872 ], [ 79.20858, 10.93887 ], [ 79.20575, 10.94639 ], [ 79.2055, 10.94705 ], [ 79.19363, 10.94503 ], [ 79.19244, 10.94448 ], [ 79.19083, 10.94373 ], [ 79.18247, 10.93986 ], [ 79.18111, 10.93919 ], [ 79.18086, 10.9391 ], [ 79.17903, 10.93913 ], [ 79.17161, 10.93928 ], [ 79.17077, 10.93929 ], [ 79.16962, 10.93932 ], [ 79.16926, 10.93939 ], [ 79.16807, 10.93962 ], [ 79.1678, 10.93967 ], [ 79.16742, 10.93974 ], [ 79.16038, 10.94117 ], [ 79.16005, 10.94118 ], [ 79.15289, 10.94133 ], [ 79.15262, 10.9413 ], [ 79.14927, 10.9405 ], [ 79.14895, 10.94042 ], [ 79.14803, 10.9402 ], [ 79.1463, 10.93985 ], [ 79.14593, 10.9397 ], [ 79.13989, 10.93637 ], [ 79.13529, 10.93384 ], [ 79.13415, 10.933 ], [ 79.13342, 10.93254 ], [ 79.13321, 10.93211 ], [ 79.1331, 10.93158 ], [ 79.13312, 10.9311 ], [ 79.1322, 10.93039 ], [ 79.132, 10.93017 ], [ 79.1312, 10.92918 ], [ 79.13029, 10.9281 ], [ 79.13019, 10.92797 ], [ 79.12991, 10.92739 ], [ 79.12938, 10.92618 ], [ 79.12924, 10.9259 ], [ 79.12871, 10.9252 ], [ 79.12781, 10.92409 ], [ 79.12628, 10.92296 ], [ 79.12481, 10.92227 ], [ 79.12275, 10.92153 ], [ 79.12096, 10.92081 ], [ 79.12061, 10.92067 ], [ 79.11933, 10.91998 ], [ 79.11902, 10.91986 ], [ 79.11751, 10.91945 ], [ 79.11721, 10.9194 ], [ 79.11693, 10.91941 ], [ 79.11398, 10.92016 ], [ 79.11357, 10.9203 ], [ 79.11324, 10.9204 ], [ 79.10836, 10.92129 ], [ 79.10586, 10.92161 ], [ 79.10324, 10.92174 ], [ 79.10305, 10.92172 ], [ 79.10266, 10.92152 ], [ 79.10254, 10.9215 ], [ 79.10214, 10.92155 ], [ 79.09992, 10.92188 ], [ 79.09853, 10.92199 ], [ 79.09819, 10.92203 ], [ 79.09637, 10.92209 ], [ 79.09435, 10.92213 ], [ 79.09364, 10.92207 ], [ 79.09247, 10.92188 ], [ 79.0916, 10.92168 ], [ 79.09036, 10.92125 ], [ 79.08906, 10.92103 ], [ 79.0888, 10.921 ], [ 79.08745, 10.921 ], [ 79.08722, 10.92099 ], [ 79.08648, 10.92092 ], [ 79.08581, 10.92083 ], [ 79.08429, 10.92081 ], [ 79.08219, 10.9207 ], [ 79.08138, 10.9206 ], [ 79.08018, 10.92026 ], [ 79.07892, 10.91981 ], [ 79.07847, 10.91967 ], [ 79.07754, 10.91916 ], [ 79.07728, 10.91898 ], [ 79.07606, 10.9178 ], [ 79.07582, 10.91748 ], [ 79.07543, 10.9166 ], [ 79.07428, 10.91393 ], [ 79.0732, 10.91118 ], [ 79.07237, 10.90884 ], [ 79.07152, 10.90685 ], [ 79.07142, 10.90656 ], [ 79.07127, 10.90585 ], [ 79.07078, 10.90414 ], [ 79.07062, 10.90379 ], [ 79.0698, 10.9024 ], [ 79.0697, 10.9022 ], [ 79.06914, 10.90093 ], [ 79.06901, 10.90059 ], [ 79.06877, 10.89972 ], [ 79.06856, 10.89903 ], [ 79.0679, 10.89782 ], [ 79.06726, 10.89683 ], [ 79.06632, 10.89546 ], [ 79.06575, 10.89464 ], [ 79.06498, 10.89376 ], [ 79.06472, 10.89343 ], [ 79.06381, 10.89193 ], [ 79.06277, 10.89089 ], [ 79.06124, 10.88953 ], [ 79.06097, 10.88931 ], [ 79.05847, 10.88794 ], [ 79.05732, 10.88723 ], [ 79.05551, 10.8862 ], [ 79.05496, 10.88592 ], [ 79.05265, 10.88458 ], [ 79.05244, 10.88453 ], [ 79.04911, 10.88522 ], [ 79.049, 10.8852 ], [ 79.04888, 10.88511 ], [ 79.04875, 10.88491 ], [ 79.04863, 10.88483 ], [ 79.04789, 10.88478 ], [ 79.04761, 10.88472 ], [ 79.04708, 10.88452 ], [ 79.04555, 10.88404 ], [ 79.04529, 10.88397 ], [ 79.04473, 10.884 ], [ 79.04335, 10.88394 ], [ 79.0414, 10.88371 ], [ 79.04116, 10.88369 ], [ 79.04023, 10.88376 ], [ 79.04001, 10.88377 ], [ 79.0391, 10.88358 ], [ 79.039, 10.8835 ], [ 79.03884, 10.88275 ], [ 79.03875, 10.8827 ], [ 79.03857, 10.8827 ], [ 79.03746, 10.88299 ], [ 79.03693, 10.88307 ], [ 79.03658, 10.88307 ], [ 79.0345, 10.88296 ], [ 79.03313, 10.88291 ], [ 79.0329, 10.88293 ], [ 79.03181, 10.8834 ], [ 79.03027, 10.88421 ], [ 79.02909, 10.88474 ], [ 79.0281, 10.88523 ], [ 79.02758, 10.88544 ], [ 79.02699, 10.88557 ], [ 79.02554, 10.88595 ], [ 79.02429, 10.88633 ], [ 79.02354, 10.88655 ], [ 79.02201, 10.88693 ], [ 79.01844, 10.88789 ], [ 79.01463, 10.88887 ], [ 79.01272, 10.88936 ], [ 79.00797, 10.89058 ], [ 79.00787, 10.89061 ] ] ] } }
]
}
